curp_repartidor,fecha_de_nacimiento,genero,calle,estado,municipio,codigo_postal,numero,nombre,apellido_paterno,apellido_materno,salario,horario,calificacion
NHFP421131HSRRIU76,2/11/2000,Transgender Female,Pine View,Melby,Hoffman,172389,058,Berny,Perrelle,Perillio,$28640.87,13:00-21:00,10
CDAZ421231HZSSPK07,9/12/1972,Transsexual Male,Fremont,Canary,Mcguire,90505,921,Peyton,Janaszkiewicz,Elvish,$21860.05,13:00-21:00,9
STFN721231MZSHEZ68,9/30/1970,Cisgender,Thompson,Dovetail,Becker,,300,Abdul,Causby,Rigts,$22169.66,13:00-21:00,9
AWHZ621131HZSMTK37,5/2/1972,Male to Female,Bellgrove,Comanche,Huxley,,208,Theodore,Parlatt,Serrurier,$12067.96,13:00-21:00,6
QLFS021230MZSUQL72,12/9/1975,Transsexual Man,Michigan,Melby,Pond,06804 CEDEX,415,Garik,Pascoe,Deery,$25126.13,12:00-20:00,9
WFEQ920031HYNAKG02,3/13/1991,Cisgender Man,Atwood,Everett,Arizona,,437,Mervin,Villalta,Prier,$14168.53,12:00-20:00,10
WUQF221131MTCBWR49,4/2/1979,Cis,Upham,Bunker Hill,Goodland,,002,Wendall,Ferraretto,Langstone,$18544.64,13:00-21:00,9
JVKR421031HYNPFD41,10/7/2000,Other,Bellgrove,7th,Hazelcrest,,357,Orville,Antonik,Blaisdale,$18159.62,13:00-21:00,10
SFUB820730MZSFPE67,2/3/1978,Two-Spirit,Spohn,Stoughton,Grasskamp,40293,008,Hayward,Mattinson,Plimmer,$27038.23,12:00-20:00,9
YRVP621104MZSAGQ35,9/24/1972,Cisgender Woman,Anniversary,Hollow Ridge,Meadow Valley,,150,Padgett,Caroll,Doumenc,$26876.95,12:00-20:00,10
YPXW321215MZSREC15,10/24/1994,Transgender Person,Alpine,Heffernan,High Crossing,34-211,033,Web,Simonini,Stichel,$28788.72,12:00-20:00,6
YWOG621230HZSSWL49,6/7/1982,Androgyne,Fisk,Blackbird,Graceland,,469,Beauregard,Clear,Ferreres,$12945.91,11:00-19:00,8
VPYN721030MYNYOT88,4/14/1997,Male to Female,Annamark,Forster,Russell,,155,Ely,Argente,O'Farrell,$15201.85,11:00-19:00,10
DMTX621107HYNAMD06,3/18/1997,Other,Birchwood,Lillian,Hayes,,799,Mitchell,Crossan,Wharton,$27645.34,13:00-21:00,7
JERT421231MTSMTU55,11/19/1971,Cisgender Male,Pine View,Ridgeview,Kennedy,,255,Regen,Denisyev,Chiddy,$23927.04,13:00-21:00,10
XKMT421130MZSIEN41,1/2/1999,Gender Nonconforming,Union,Kensington,Rutledge,,888,Brose,Applegarth,Chupin,$18208.82,13:00-21:00,9
GOSK821231MZSAXF30,7/15/1997,Other,Fair Oaks,Browning,Columbus,49120,054,Bradan,McCague,Moysey,$10575.75,13:00-21:00,10
PFZM521231HZSDRQ97,7/27/1993,Cisgender Male,Old Shore,Susan,Ilene,22130,679,Julie,Feveryear,Gertz,$21705.25,13:00-21:00,6
BIYD321231MZSCKT96,7/17/1983,Non-binary,Esch,Waxwing,Mariners Cove,,827,Elliot,Blind,Downs,$18043.24,7:00-15:00,10
IZBF221231MZSEQU10,3/10/1983,Trans Man,Graedel,Bowman,Westerfield,,329,Burlie,Vassbender,Kaysor,$22255.86,12:00-20:00,9
GMUO320931MZSBMS86,5/18/1984,Gender Questioning,Charing Cross,Gale,Shopko,45650-000,379,Marijn,Seamarke,Ranahan,$19733.72,10:00-18:00,9
UGLT321031MZSFQX63,2/7/1999,Trans,Wayridge,Comanche,Holmberg,,805,Stephan,MacCurlye,Casol,$25853.98,12:00-20:00,9
KGUW321101MZSIPW00,7/9/1993,Cis Male,3rd,Forest Dale,3rd,399240,103,Edgar,Westrope,Elmore,$26998.78,12:00-20:00,10
GAFP421230MZSKMB65,9/15/1998,MTF,Loomis,Larry,Village Green,,672,Claudio,Pietrzak,Newdick,$14210.93,13:00-21:00,9
FYWJ021231HVZOGB89,12/5/1983,Transsexual,Waubesa,5th,Sugar,,876,Miller,Bursnoll,Whyberd,$25965.28,13:00-21:00,10
PKLN421231MYNIUN42,1/6/1986,Transsexual Female,Victoria,Bellgrove,Southridge,,619,Franciskus,Borne,Cowerd,$28386.20,11:00-19:00,10
ZBYM821200HYNVBZ89,8/24/1995,Transgender Male,Talmadge,Village Green,Magdeline,4174,586,Gonzales,Deboo,Dael,$24627.30,13:00-21:00,7
FTKE521130MZSHDW51,8/1/1983,Trans Female,Graceland,Troy,Quincy,,116,Noam,Copas,Goudman,$29243.42,13:00-21:00,10
USZE621130HZSJBO16,7/3/1974,Transsexual Male,Grover,Lerdahl,Reinke,,653,Lucias,Tricker,Meadmore,$24292.14,13:00-21:00,7
MDFK221006MZSXVM29,10/24/1990,Cis Male,Anniversary,Blaine,Waubesa,,117,Dana,Bradtke,Broady,$18588.93,9:00-17:00,9
XPNR120931HZSQCH96,4/12/1977,Trans Male,Manufacturers,Manitowish,Luster,,980,Iorgos,Klaus,Scurry,$21866.13,13:00-21:00,9
LZWG321130MZSOMB55,8/15/1995,Cisgender,Burning Wood,1st,Bartelt,249039,727,Der,Walton,Lamb,$20830.90,13:00-21:00,7
OKNV821230HZSNKE14,5/8/1977,Transgender Man,Oriole,Fisk,Dennis,,946,Augustine,Arrighetti,Ankers,$22156.63,13:00-21:00,10
LKSD220630MYNKDC49,5/15/1992,Gender Fluid,Michigan,Charing Cross,Stoughton,35400,842,Riobard,Pinke,Enderby,$10391.48,13:00-21:00,7
PFYE420612HZSHWE38,11/9/1977,Transgender Man,6th,Arrowood,Bonner,612 80,911,Alaric,Eakin,Vamplus,$20504.54,13:00-21:00,9
GKQR321130HVZUHR16,6/6/1996,Transgender Male,Eagle Crest,Gerald,Steensland,,010,Milt,Bywaters,Van Arsdall,$20964.98,12:00-20:00,9
QDIX021231HTSJGB61,9/23/1985,Cisgender Woman,Lakewood,Redwing,Doe Crossing,43-520,025,Jefferson,Hull,Vairow,$25220.29,13:00-21:00,10
LVZY621231MVZYDL78,1/24/2000,Trans Man,Orin,Lillian,Daystar,AD600,672,Reinold,Ivashechkin,Prop,$29380.51,11:00-19:00,10
YRSI021131MYNPJZ90,7/27/1996,Transgender Person,Fallview,Summerview,Cherokee,,177,Roddie,Bevis,Hamson,$17072.14,12:00-20:00,6
LKYJ721231MZSPGB32,4/17/1972,Female to Male,Springview,Oakridge,Bluejay,,046,Gearard,Girardez,Papachristophorou,$21378.54,13:00-21:00,9
EMVQ021231MZSZEC65,9/8/1974,Cisgender Female,Mcbride,Dorton,4th,7200-224,384,Jarrad,Yersin,Bertolin,$13114.51,12:00-20:00,9
FSNE121231HYNBOM02,5/19/1974,Trans Female,Starling,Stuart,Rutledge,,989,Richart,Tynnan,Vischi,$28206.58,13:00-21:00,6
SVRJ821218MSLEOS14,12/26/1992,Transgender Man,Farragut,Sunfield,Vera,,758,Fredric,Baudoux,Evershed,$17661.00,13:00-21:00,7
HGJV421231MVZUFS45,7/6/1973,Bigender,Elka,Brentwood,Truax,10001,735,Giusto,Leverson,Challiner,$24053.87,13:00-21:00,10
EADS921030MTSUEF62,8/11/1996,Androgynous,Anhalt,Karstens,Mesta,,913,Ariel,Avann,Blumsom,$27350.63,12:00-20:00,10
ZHRS921213HZSFMR06,10/2/1973,Pangender,Londonderry,Paget,Memorial,1440,078,Talbot,Dallin,Legister,$29379.73,13:00-21:00,9
HEKJ921230MZSUTW32,9/11/1983,Cis Female,Mifflin,Swallow,Acker,634510,722,Kinny,Mapholm,Selcraig,$27500.60,12:00-20:00,10
TXRD621130MTCULB58,5/9/1978,Gender Nonconforming,Mayer,Debra,Sycamore,,365,Hewe,MacMaykin,Pietzner,$13220.06,11:00-19:00,10
GUFE521130MZSSKT16,1/19/1999,Agender,Sachtjen,Anhalt,Lawn,62411 CEDEX,711,Tate,Cheel,Fraczkiewicz,$29654.14,9:00-17:00,6
IOQC721131HZSFKW37,11/18/1998,Agender,Dayton,Buhler,Fuller,,592,Pattin,De Cleen,Ellacombe,$15540.03,13:00-21:00,9
PAWB520631MZSROY06,11/10/1982,Trans Man,Canary,Old Shore,4th,,588,Frasquito,Littleproud,Barrat,$29366.59,12:00-20:00,9
GPBK721231MZSODT05,2/8/1970,Gender Questioning,Melby,Brickson Park,Homewood,78275-000,525,Anson,Berzon,Normington,$21797.85,12:00-20:00,6
HOMV021231MYNKCD92,12/7/1987,MTF,Ramsey,Buena Vista,Charing Cross,,339,Stan,Tomanek,Tawse,$14535.62,13:00-21:00,9
LNMU421116MVZILK42,9/13/1999,Cisgender Male,Sunnyside,Jana,Summit,68380-000,941,Asa,Coad,Pawsey,$10293.12,12:00-20:00,10
UACL921131HYNGNT04,10/20/1984,Cisgender Man,Main,Nova,Chive,,105,Matthew,Stirling,Milstead,$18638.12,13:00-21:00,10
RMCJ421031MZSMKJ14,7/8/1995,Cisgender Male,Dahle,Valley Edge,Muir,34985,678,Brendon,Loomes,Sprigin,$19249.32,12:00-20:00,10
KMLO921131HZSFUE18,12/21/1989,Two-Spirit,2nd,Harbort,Holy Cross,43-503,934,Byram,Darnborough,Chatteris,$26257.37,12:00-20:00,8
WPDM320308HZSAGB15,1/2/1981,Transgender Male,Almo,Armistice,Hallows,,675,Bailie,Coffee,Castelow,$10151.53,13:00-21:00,9
MYUC321209HZSFLZ23,2/15/1970,Other,Surrey,Springview,Brown,,883,Hewie,Leaver,Cockney,$11214.35,11:00-19:00,10
CHKJ921209MZSDPL84,5/22/1993,Cisgender Woman,Bobwhite,Hanson,Hanson,05-160,196,Gabe,Paprotny,Writer,$23646.58,13:00-21:00,10
FSPU820830HZSWIS08,2/5/1993,Cis Female,Green,Lien,Hooker,446800,889,Johnny,Gooddy,Jirick,$10864.25,13:00-21:00,10
KERI921231MZSFUV65,7/21/1970,Trans Person,Sutteridge,Nobel,Cordelia,,445,Nial,Rozet,Reid,$23433.85,12:00-20:00,6
SJPQ221230HZSXEP35,6/26/1988,Transsexual Male,Surrey,Boyd,La Follette,A84,394,Ozzie,Seligson,Cuolahan,$23518.01,12:00-20:00,8
RLBJ721231HZSSHX18,7/30/1976,Cis Male,Spaight,Hansons,Stoughton,,175,Corny,Mattacks,Dello,$12733.28,12:00-20:00,10
ACPR420107MZSVHA01,8/19/1995,Trans Female,Pennsylvania,Lindbergh,Arapahoe,99840-000,901,Euell,de Voiels,Bice,$25018.55,13:00-21:00,10
TJMH320830HVZFBE09,7/18/1997,Androgynous,Mayer,West,Merchant,,751,Bert,Webburn,Roddy,$24339.03,13:00-21:00,10
AMDC121230HZSCUX26,8/5/1973,Cisgender Male,Cordelia,Dixon,Heath,132018,117,Rice,Kilner,Pallesen,$20008.11,12:00-20:00,10
LBGW021118HTCOGS56,8/9/1981,Transgender Woman,Mariners Cove,Schiller,Kropf,,707,Nataniel,Glendinning,Devenish,$14606.95,13:00-21:00,10
CYQB521131HSRHOQ14,5/8/1999,Androgyne,Redwing,Coleman,Arizona,37-230,999,Bancroft,Lough,Derricoat,$25155.23,13:00-21:00,10
XJFI421230HTSSGA85,9/19/1990,Cisgender Female,Warrior,Daystar,Northland,9401,903,Dud,Wrettum,Hallen,$15512.87,12:00-20:00,7
YXBK321230HYNWLA05,1/10/1994,Transgender Female,Eliot,Sutteridge,Sachs,4625-347,200,Irwinn,Fernie,Guerreru,$24009.57,13:00-21:00,9
ZJDS321031MYNARL92,10/1/1988,Genderqueer,Banding,Kings,Northridge,,702,Nollie,Beadles,Whaymand,$24021.16,13:00-21:00,10
IMRS021031HZSQYN59,4/19/1986,FTM,Waxwing,Kedzie,Service,42-575,065,Johny,Vinker,Cozens,$10743.78,13:00-21:00,7
GMXE020730MVZGSU89,3/27/1974,Trans,Coleman,Meadow Ridge,Scofield,,962,Edward,Laming,Bauldrey,$10034.97,11:00-19:00,8
PSQW021210HYNBHK08,12/5/1997,Gender Variant,Caliangt,Susan,Burning Wood,,726,Conrad,Barosch,Harower,$12127.21,13:00-21:00,10
NOWG421230MTSNAL96,11/19/1999,Cisgender,Butternut,Sutteridge,Bay,,359,Yorker,Antuk,Tumilty,$23461.41,8:00-16:00,10
TISM321131MZSEFB32,8/22/1992,Cis Woman,Del Sol,Caliangt,Kingsford,682027,691,Thedrick,Paulillo,Larsen,$13663.12,12:00-20:00,9
VZKD320031HZSCJN07,12/27/1981,Female to Male,Merry,Monica,Hanover,57540-000,033,Egan,Listone,Fosserd,$13201.68,12:00-20:00,10
HGPN621001MVZVKU64,5/27/1997,Gender Questioning,Lighthouse Bay,Duke,Sommers,238548,428,Chickie,Cunliffe,Sworder,$20915.76,12:00-20:00,10
ONIW521030HZSJBD43,6/20/1977,Trans Male,Kropf,Thompson,Artisan,,040,Saw,Clews,Verheijden,$26699.28,13:00-21:00,6
WMZX321231HZSNSW00,5/25/1975,Trans Male,Melrose,Bonner,Kim,15250,513,Goober,Jewett,Burdekin,$18752.12,10:00-18:00,9
WAEP621131MZSMSY96,10/22/1973,Cisgender Woman,Kingsford,Donald,Shopko,789 85,206,Iorgo,Neville,Dornin,$22053.19,12:00-20:00,10
KMDQ221131HZSABO38,5/19/1977,Transmasculine,Warbler,La Follette,Tony,,875,Errol,Sancho,Farrow,$20544.44,13:00-21:00,10
ZKGE821231HZSYEO09,3/27/1976,Androgynous,Bay,Sunbrook,Thackeray,,532,Tomkin,Kedge,Gumey,$13772.73,13:00-21:00,10
HIWG821231HZSQBW29,3/12/1995,Trans Man,Meadow Valley,Schlimgen,Golf,,874,Tore,Linnock,Greest,$15126.93,13:00-21:00,10
PZOX021130HZSUYZ72,12/19/1999,Cis Woman,Roxbury,Dahle,Hooker,,703,Reggy,Tebb,Lemery,$16246.45,12:00-20:00,9
GBXU321108HZSJUH58,8/16/1981,Intersex,Nancy,Washington,5th,172711,074,Jerad,Hirtz,MacAndie,$29990.18,13:00-21:00,10
VUWT321231MZSQAM68,3/24/1993,Transsexual Female,Claremont,Carpenter,Lien,,465,Hobey,Delgadillo,Woodger,$18941.08,13:00-21:00,9
LRIE421230MZSVRD79,4/26/1986,Trans,Dapin,Quincy,Banding,4186,343,Rodger,De-Ville,Surcomb,$28147.83,13:00-21:00,9
HJXW721130HYNPUH58,1/15/1999,Gender Nonconforming,Sommers,Tennessee,Iowa,,961,Berty,Alvin,Garrow,$19210.87,11:00-19:00,9
RDLC320131MYNLJC76,4/17/1992,Cisgender Woman,Swallow,Morning,Springs,32244,135,Flory,Vaughn,Glyn,$12254.95,13:00-21:00,6
CHAD521230HYNVCI20,10/14/1971,Non-binary,Eastwood,Quincy,Dunning,4323,840,Yorgos,Usmar,Olczak,$26891.68,13:00-21:00,10
LVFA020330HZSAHD48,6/18/1987,Trans,Hagan,Magdeline,Crownhardt,751 87,794,Pren,Attarge,Dumbare,$24173.12,12:00-20:00,9
PQJT921117HZSUXA28,6/26/1997,Transsexual Man,Jackson,Holmberg,Pond,05-320,961,Rory,Harmar,Elfitt,$26039.27,13:00-21:00,8
XOKE521130MZSWDX98,11/3/1971,Transsexual,Springview,Melody,Cordelia,,627,Loy,Couzens,Procter,$15201.61,13:00-21:00,9
BHOA521230MZSCDQ68,12/13/1975,Cis Male,Karstens,Talmadge,American,,446,Vincent,Escofier,Souley,$28191.08,12:00-20:00,10
XUID621231MZSPMC10,6/21/1998,Two-Spirit,Bashford,Heffernan,Vidon,,125,Reginauld,Cloake,Demanche,$15769.46,10:00-18:00,9
HXPT621131HZSJTO49,10/21/1979,Cis Man,Elka,Mandrake,Ramsey,,416,Bobbie,Czyz,Leatherborrow,$13830.18,12:00-20:00,10
WPZL221131HZSRNC26,12/25/1988,Cis,Vera,Trailsway,Bluestem,,519,Vincents,Gaukroger,Dorsett,$24848.57,13:00-21:00,10
MZAE521030MVZCJB67,7/16/1975,Transsexual Man,Merry,Huxley,Logan,,240,Sandy,Jillins,Chrstine,$20218.22,13:00-21:00,8
XKUF321104HZSBAD02,3/29/1981,Transgender Woman,Northwestern,Portage,Granby,,351,Jonathon,Yakubovich,Langtry,$12429.78,13:00-21:00,10
CKLJ721231MZSRWZ12,12/22/1971,Female to Male,Maple,Rowland,Garrison,4560-750,637,Shem,Rannigan,Osan,$11111.67,12:00-20:00,10
UOXC421015MZSQMU86,10/10/1977,Intersex,Iowa,Leroy,Veith,,841,Sky,Piper,Piccop,$23502.30,12:00-20:00,10
QWVE921031MVZXQN83,3/2/1972,Female to Male,International,Grim,Lawn,,575,Ferris,Noar,Hannigan,$19450.15,13:00-21:00,9
GYEC121231HYNALY01,8/24/1991,Intersex,Susan,Tennessee,Oak Valley,396730,107,Umberto,McCague,Aitken,$23496.45,12:00-20:00,9
SVPN121118HVZONR80,7/25/1990,Cis Male,Farragut,Haas,Talisman,4990-640,389,Jeremiah,Bransdon,Womersley,$11189.40,13:00-21:00,9
UIWZ821231MYNGWE04,3/26/1988,Trans Male,Schlimgen,Cherokee,Kropf,,387,Parry,Hartright,Towell,$26729.03,12:00-20:00,9
BVYI521130HZSJMO52,12/9/1970,Transsexual Person,Coleman,Dennis,Kinsman,841 08,930,Oren,Bloodworth,Swithenby,$13508.12,12:00-20:00,9
ORPH521230HYNZOM32,7/26/1985,Cisgender Male,Cardinal,Summerview,Aberg,,253,Julian,Lampbrecht,Pick,$25250.17,10:00-18:00,10
QHNG421230HZSGBP65,10/24/1999,Transsexual Woman,Brentwood,Thompson,Dixon,,004,Ikey,Purbrick,Malzard,$17374.17,9:00-17:00,9
XFWN721230HZSHCO34,6/7/1992,Gender Variant,Northport,Lakewood Gardens,Hoffman,04006,929,Hakim,Pendrich,McVicar,$28602.02,13:00-21:00,10
ZNLR321231HZSQAR05,5/2/1998,Cis Male,Fulton,Lukken,Waxwing,,282,Griffith,Heliot,Haynesford,$25900.90,11:00-19:00,7
HYWL021230MZSPSN86,10/11/1989,Transgender Person,Dayton,Eliot,Manitowish,3805,443,Hobard,Andreassen,Ardern,$17811.65,11:00-19:00,9
WVAD221131MYNUHQ15,5/29/1985,Transsexual Man,Independence,Roth,Ridgeway,33100,762,Roley,Girauld,Ximenez,$13053.54,13:00-21:00,9
LQXO820210MZSJDB68,9/1/1991,Male to Female,Brickson Park,Farragut,Paget,6506,377,Ulberto,Donner,Heasman,$20805.63,12:00-20:00,10
WJXM120630MYNNRY76,8/20/1971,Transmasculine,Basil,Forest,Union,9410,616,Reidar,Londesborough,O'Scully,$15197.90,13:00-21:00,8
TNFY021231HZSDCL09,6/7/1992,Transsexual Person,Debra,Forest Dale,Ryan,9005,702,Brade,Desporte,Parsonson,$19510.67,13:00-21:00,9
EAMY321030MZSTWD39,1/26/1993,Trans Female,Arapahoe,Gale,Eliot,,605,Devy,Healey,Lapworth,$14027.77,13:00-21:00,10
OBSH420730MZSNVW03,10/25/1970,Non-binary,Beilfuss,Florence,Saint Paul,32010 CEDEX,386,Ingra,Cammis,Sink,$13891.74,13:00-21:00,8
YCUV921109HVZNHT89,6/8/1978,Gender Variant,Little Fleur,Granby,Pleasure,153457,187,Davis,Chivrall,Barthorpe,$29816.38,12:00-20:00,9
HKAD021101HZSMVB65,2/14/1997,Gender Fluid,Dixon,Amoth,Mcguire,474 31,502,Red,Ritson,Walklott,$15308.84,12:00-20:00,7
WYQO221230MYNEKA31,1/24/1989,Trans Female,Manufacturers,Anderson,Loftsgordon,305-0028,761,Wade,Lovejoy,Phelipeau,$28622.62,13:00-21:00,10
TBFE921130MTCDUP09,3/18/1988,Transsexual Male,Waxwing,Porter,Kim,,702,Cheston,Joontjes,Suller,$29489.62,13:00-21:00,8
SNUM821231HZSQKI63,9/20/1979,Cisgender Male,Novick,Old Gate,Spohn,1410,029,Tobie,Noriega,Hum,$14910.88,13:00-21:00,6
AZVE121230HYNQUJ22,3/21/1974,Cisgender Female,Kedzie,Hayes,Riverside,,983,Gunter,Skelbeck,Pranger,$26753.71,10:00-18:00,8
PNHB221231MYNPRC79,8/20/1984,Transsexual Person,Heath,Lyons,Brentwood,,829,Ollie,Houchin,Oxborough,$14943.76,12:00-20:00,10
QAWH921031HYNFDS59,7/14/1993,Male to Female,Rieder,Marcy,Ludington,,310,Tobe,Iczokvitz,Brotherhed,$19963.58,13:00-21:00,10
SYCT621230HZSTLB19,8/9/1978,FTM,Lawn,Erie,Wayridge,,057,Jarrad,Samwayes,Sollars,$26324.33,13:00-21:00,9
GAFQ221108HTSVBC42,12/15/1975,Cis Female,Mcbride,Victoria,Dixon,607614,391,Lazaro,Pollastro,Hellsdon,$19904.06,13:00-21:00,9
ZBAY721031MZSIPL39,10/12/1998,Transgender Female,Superior,Portage,Utah,2512,657,Mitchell,Wilsdon,Geraldo,$23800.01,13:00-21:00,8
YBMO921231MVZWUY82,1/27/1983,Non-binary,Kipling,Lakeland,Red Cloud,,289,Claiborn,Polsin,Sherrin,$20069.43,12:00-20:00,10
HPTE721131HYNZUK20,7/27/1976,Cisgender Man,Esch,Blue Bill Park,Jackson,149 81,122,Brew,Batchelar,Sawle,$19601.22,13:00-21:00,6
VXMH721231MZSJPG41,8/21/1983,Cis Male,Roxbury,Donald,Crescent Oaks,59339 CEDEX,863,Arnie,Surcombe,Bwye,$13493.79,13:00-21:00,10
HKEJ821231HZSJBI69,7/11/1970,Cisgender Woman,Sage,Anniversary,Reindahl,924-0007,224,Tristan,Cayford,Odegaard,$26846.20,13:00-21:00,10
HQXA121031HTSOYT91,8/29/1970,Cisgender Woman,Cordelia,Westport,Vera,,618,Hershel,Nathan,Connold,$23475.07,13:00-21:00,10
METZ121114MYNDTS45,7/27/1996,Transsexual Person,Packers,Gulseth,Kenwood,,685,Rriocard,Sommerscales,Dispencer,$15120.73,13:00-21:00,10
WHDI721031HYNLUK33,8/3/1990,Cis Male,Vera,International,Melrose,,938,Ellis,Plastow,Cuddy,$16592.84,13:00-21:00,8
TVBM021231HZSGLN54,10/17/1991,Female to Male,Forster,Novick,Johnson,675-1324,915,Orlando,Beel,Kemmish,$22374.26,13:00-21:00,10
LQBU421230HZSTDG61,8/19/1972,Transgender Female,Barnett,Crownhardt,Hanson,417048,260,Winny,Bidmead,Bollini,$12243.44,13:00-21:00,10
WPVB221211HZSBKF33,12/6/1994,Trans Male,Kenwood,Kings,Lyons,9507,244,Baron,Franzelini,Jack,$16792.30,13:00-21:00,10
WEKY921106MYNLHR36,10/13/1999,Cis Woman,Butternut,Cambridge,Pawling,,439,Selby,Gillan,Vasnetsov,$10546.48,11:00-19:00,10
BUQT521209MYNFTD44,12/29/1988,Transsexual Female,Mcguire,Gina,Helena,,176,Birch,Frift,Brownill,$12069.70,13:00-21:00,10
SGZL621231HZSANM19,2/15/1981,Two-Spirit,Huxley,Manley,Acker,,094,Finlay,D'Alessandro,Goslin,$17325.00,13:00-21:00,10
CFZH221030MZSYRB00,11/18/1994,Transgender Male,Morrow,5th,Washington,2605-006,128,Caddric,Tethacot,Proffer,$28371.79,12:00-20:00,10
ACMR121231HZSTZD15,3/19/1995,Cis,Burrows,Lukken,Jackson,,887,Cecil,De Malchar,Rego,$17859.82,13:00-21:00,10
WMPL820502MSLLIE26,7/2/1981,Transsexual Man,Meadow Valley,Magdeline,Maple Wood,,243,Mead,Smogur,Everist,$12410.00,13:00-21:00,10
KMIN821230HZSRWE17,3/29/1987,Gender Nonconforming,Pine View,Thierer,Tennessee,,112,Glen,Cottrill,Aldrin,$23621.57,12:00-20:00,10
CFZX421000MZSVDI05,5/23/1990,Cis Woman,Blaine,Talisman,Crest Line,73210,455,Raimundo,Tincknell,Acott,$13287.38,13:00-21:00,10
IUKB321031HYNIKX91,8/20/1970,Genderqueer,Dorton,Valley Edge,Claremont,58884-000,484,Marion,Huband,Timmes,$29975.86,11:00-19:00,10
IXFJ921231MZSIOS97,8/15/1974,FTM,Ruskin,Clove,Quincy,,399,Portie,MacCafferky,Zavittieri,$11284.99,13:00-21:00,9
SKPH421130MYNMJD10,10/14/1990,Neutrois,Derek,Valley Edge,Warrior,,647,Trevar,Livingston,Benedicto,$28776.25,13:00-21:00,6
TZEJ321214HVZTLS85,10/8/1989,Trans Woman,Novick,Becker,Hoepker,3714,984,Edvard,Guinn,Huc,$27959.40,11:00-19:00,8
PWBJ521230MVZQOT42,1/26/1970,Transgender Male,Prairieview,Graceland,Arkansas,,793,Upton,Blaxley,Drewery,$16600.16,13:00-21:00,10
RIYH221231HYNLGQ25,10/17/1989,Cisgender Female,Bay,Spohn,Gale,618824,034,Kliment,Clemson,Greet,$10786.30,12:00-20:00,10
XAHD421230HZSBIM12,5/6/1999,Androgynous,Pine View,Cambridge,Scoville,,863,Lisle,Garred,Folley,$19474.87,12:00-20:00,7
YHIA321205HZSVXB69,1/26/1982,Agender,Glendale,Prentice,Rockefeller,,321,Morry,Moncey,Hedworth,$27554.73,11:00-19:00,8
JABF721231MYNHYW71,10/1/1999,Neither,Scott,Oak Valley,Emmet,,090,Jay,Dominec,Gammet,$28288.31,12:00-20:00,7
MLOY321231HZSELF11,9/16/1991,Transgender,Ilene,Messerschmidt,Kenwood,597 96,994,Inness,Sheerman,Rawne,$13413.22,13:00-21:00,10
GOBV021108HZSAZL92,7/30/1975,Cisgender Woman,Roxbury,Rutledge,Pond,97-318,583,Rudolfo,Cowp,Iacomi,$21543.88,12:00-20:00,9
CYWM121231MTSEDJ61,4/6/1980,Trans Male,Fairview,Park Meadow,Brentwood,,386,Constantin,Roalfe,Arman,$14609.07,11:00-19:00,10
PXKE221231MZSGEX32,2/24/1977,Transsexual Woman,South,Thompson,3rd,11201,342,Daryl,Tregonna,Thireau,$26196.48,10:00-18:00,10
LHWZ520031HZSRML41,10/6/1986,Other,Dahle,Toban,Hovde,,420,Hillery,Aberdeen,Mundie,$19777.47,8:00-16:00,10
USWO521130HZSJHN39,8/15/1998,Transgender Male,Golden Leaf,Sugar,Dovetail,37900-000,502,Nathan,McQuilty,Wontner,$24610.05,13:00-21:00,6
OSKV621031MVZVMU82,6/11/1975,Intersex,Manitowish,Michigan,Pennsylvania,7207,693,Lefty,Whitney,Pawlyn,$21560.06,13:00-21:00,9
WUZJ420202MVZZKC24,4/22/1992,Cis Female,South,Bashford,Miller,,460,Hollis,Hawkeridge,Annatt,$14272.87,9:00-17:00,10
DMEV421231MZSPXN50,3/29/1975,Trans Person,Drewry,Wayridge,Comanche,14008 CEDEX 1,003,Tremain,Jillitt,Buckam,$28703.63,13:00-21:00,10
HTKC121131HYNEVY48,10/25/1993,Transmasculine,Longview,Barnett,Lien,,137,Alexandr,MacGaughie,Boc,$12512.25,13:00-21:00,7
UEMO921031HYNAJK94,9/13/1976,Transgender,Barnett,Maple,Independence,391237,875,Jae,Farrant,Halksworth,$17384.98,7:00-15:00,10
KWSG921031HZSLKY15,8/3/1990,Trans Person,Bayside,Towne,Northport,,085,Wait,Lillecrop,Shaves,$26121.08,11:00-19:00,8
OJLU121200MSRONW98,6/29/1976,Transsexual Woman,Susan,Delaware,Milwaukee,6005,805,Franny,Cosby,Hardiman,$24914.88,12:00-20:00,10
UZQL921231HZSRVX43,11/24/1997,Gender Nonconforming,5th,East,Dovetail,,550,Lorry,Dunnan,Ewestace,$15345.18,11:00-19:00,8
SNLK621231MZSEQL32,1/6/1999,Pangender,Mockingbird,Sloan,Clove,520-0111,979,Ody,Fisk,Castelletto,$26003.37,10:00-18:00,8
AFEL621214HYNAXR80,1/31/1998,FTM,Duke,Brown,Shopko,,325,Xymenes,Breward,Bolderson,$26751.14,13:00-21:00,10
OVRX121103HSPTVP13,5/24/1975,Pangender,New Castle,Golden Leaf,Bunting,96835,966,Richie,Haet,Glisane,$28778.51,13:00-21:00,10
LEGI121231HYNKWA85,6/29/1996,Androgynous,Almo,Cambridge,Monument,,878,Fonz,Duignan,Crimmins,$17477.68,9:00-17:00,10
YFPR420801MZSGTR86,3/15/1971,Trans Person,New Castle,Meadow Ridge,5th,,293,Micheal,Diack,Tice,$26748.44,13:00-21:00,10
CHKF421119MZSJUE36,10/14/1986,Transsexual Person,Superior,Derek,Tennessee,,697,Armand,Liddle,Reardon,$12687.87,7:00-15:00,10
FSQX521230HTSQYJ37,8/24/1970,Cis,Fuller,Bartillon,Bobwhite,3131,089,Bink,Rayhill,Cockton,$26448.68,13:00-21:00,6
TCJF921231MZSAZS56,6/28/1971,Transsexual Woman,Oxford,Brickson Park,Lyons,45223,519,Wye,Kinworthy,Reckhouse,$29948.99,13:00-21:00,8
YQAO021131HTCMIN39,6/22/1990,Trans Woman,Spaight,Lien,Alpine,8130,883,Romain,O' Ronan,Romans,$28986.45,11:00-19:00,6
FBGR821030MYNQNP44,5/12/1991,Transsexual Female,Hanover,Oak,Pepper Wood,,343,Terrel,Brinsford,Stoddard,$20787.63,12:00-20:00,9
WFAK321231HYNVIM37,7/12/1971,Transgender Male,Goodland,Butterfield,Monterey,,500,Kin,Seager,Grastye,$14711.48,12:00-20:00,8
ZGHP120631MZSXCM80,6/10/1982,Two-Spirit,Anthes,Dixon,Northridge,,092,Ced,Shiel,Wooderson,$15925.42,13:00-21:00,10
WITS621231HYNSMD17,1/11/1983,Two-Spirit,Erie,Nova,Autumn Leaf,,054,Urbain,Burr,Froggatt,$24451.48,11:00-19:00,9
ORQW321231MYNBKR14,6/23/1996,Gender Fluid,Del Sol,Kinsman,Boyd,4712,987,Berne,Whartonby,Kolodziejski,$21584.60,13:00-21:00,10
ECTA921031MVZFJT58,1/14/1980,Transsexual Male,Westerfield,Texas,Golf Course,,921,Richard,Ouver,Sears,$25678.34,13:00-21:00,6
CKNZ421231MZSSRI42,4/18/1999,Trans Person,Texas,Roth,Elgar,20000-000,818,Rorke,Baynard,Potapczuk,$28837.45,13:00-21:00,10
IKBR620307MSLWOC87,4/14/1970,Transgender Man,Hallows,Leroy,Anhalt,,355,Jacob,Toler,Ingilson,$22385.83,12:00-20:00,8
BDLV120031MVZSUA33,9/8/1990,Trans Man,Laurel,Starling,Prentice,89-310,154,Svend,Gummory,Sunnucks,$18239.40,10:00-18:00,10
SYDL721231HZSIPA01,6/17/1988,Agender,Lindbergh,Huxley,Waxwing,,284,My,Espinay,Andrault,$12439.83,8:00-16:00,7
ALDV421119HZSDNV92,6/28/1999,Other,Bashford,Blaine,Rowland,54700-000,973,Augustine,Cuffley,Swadling,$19789.83,13:00-21:00,10
CSMK620631HZSEYL69,1/24/1980,Other,Pierstorff,International,6th,,284,Jeff,Leversuch,Lapthorn,$14540.34,10:00-18:00,10
YDBM321114HZSBEC60,2/19/1972,Gender Questioning,Rieder,Atwood,Twin Pines,1706,614,Saxon,Weatherall,Lochhead,$19456.75,10:00-18:00,9
JHUX921031HZSCHR63,4/27/1978,Neutrois,Lotheville,Golden Leaf,Sage,763 26,677,Zack,Spata,Jakubiak,$15547.36,12:00-20:00,9
YOLU821004MZSBHY73,5/11/2000,Cis,Russell,Cottonwood,Morningstar,,276,Quillan,Coppin,Bottell,$12595.19,9:00-17:00,10
FEHJ121231MZSTWH13,6/7/1979,Neither,Fisk,Raven,Bobwhite,960-0645,071,Jan,Boyington,Debill,$12626.00,13:00-21:00,10
NICY921231HZSVSW44,3/14/1998,Transgender Female,Hollow Ridge,Parkside,Golf View,,087,Holmes,Coey,Jefford,$16871.80,13:00-21:00,10
BTSV120831HZSXWZ60,8/4/1978,Intersex,Melby,Pearson,5th,58-550,345,Franklin,Niaves,Lindenbluth,$28141.64,9:00-17:00,7
VHWD021231HZSIOC56,4/11/1982,Pangender,Crescent Oaks,Darwin,Victoria,,136,Wallace,Cranfield,Cressy,$29454.76,12:00-20:00,10
VXYP820930HYNFID10,9/18/1993,Cis Female,American Ash,Arizona,Vernon,,152,Bartlet,Letertre,Hewell,$13769.59,11:00-19:00,7
GZLM421230HYNUBH35,11/21/1996,Male to Female,Cherokee,Northfield,Oriole,61607,042,Enrico,di Rocca,Lope,$22971.17,11:00-19:00,6
VSLN021214HVZFRN01,7/15/1982,Transsexual Male,Summerview,Oak Valley,Buhler,,396,Dav,Comino,Menco,$28072.28,12:00-20:00,9
SWRT720131HTCVOU01,4/10/1995,Cis Female,Dryden,Hovde,Vermont,,283,Tanney,Raoult,Goodlip,$12704.02,13:00-21:00,9
NQOE521231MZSVCU20,2/4/1971,Two-Spirit,Meadow Valley,Lotheville,Havey,31059 CEDEX 9,332,Franzen,Shillabeer,Esseby,$15878.28,12:00-20:00,10
BEHR121230MZSNEU05,10/8/1973,Bigender,Ramsey,Tennessee,Alpine,,223,Constantine,Shear,Ecclesall,$13840.14,13:00-21:00,9
RLYV121230MZSBYH83,2/18/1977,Gender Fluid,Melrose,Sauthoff,Prentice,,529,Mart,Swanborrow,Woolvett,$19824.82,13:00-21:00,8
DUJZ321131HZSUFL77,10/6/1979,Transgender,Westridge,Shopko,Tony,,224,Mathew,Guest,Husset,$23561.50,13:00-21:00,10
MEVX121031HYNDKF35,4/8/1972,Trans Female,Roxbury,Milwaukee,Longview,,900,Morris,Esplin,Hayzer,$18182.16,12:00-20:00,10
MWGN921231HZSAFM48,2/24/1986,Transsexual Male,Stephen,Forest Dale,Hintze,,439,Garner,Spight,Drover,$23099.63,7:00-15:00,10
ZVLG921231HZSAWP10,12/31/1980,Transsexual Man,Jenna,Fremont,Bluejay,,785,Otho,Mayberry,Rate,$20839.66,12:00-20:00,10
DOBL921230HZSWTF72,4/4/1979,Transgender Person,Lawn,Brickson Park,Prairieview,,154,Bard,Rummin,Baddoe,$10936.39,12:00-20:00,9
IORG721231HTCUCP48,7/4/1993,Transgender Woman,Susan,Charing Cross,Caliangt,,868,Esme,Ivanishchev,Mattiacci,$25847.26,9:00-17:00,9
EJYK321231HZSLTG20,1/11/1988,Neutrois,Comanche,Autumn Leaf,Westend,52428,843,Parrnell,Alchin,Barltrop,$23725.22,13:00-21:00,10
LQZR321131HZSGKT84,7/9/1997,Transgender Woman,Shopko,Granby,Oak Valley,,456,Waverley,MacCulloch,Clavering,$23094.22,13:00-21:00,9
AGUL721131MVZUVK29,7/24/1996,Genderqueer,Merry,Saint Paul,Welch,517 71,976,Arlin,Preble,Beedom,$14341.24,11:00-19:00,10
MKTF021131HZSTIK43,3/11/1990,Transsexual Person,Anniversary,Raven,Mitchell,IM9,366,Odey,Heathcoat,Le Gassick,$28445.51,13:00-21:00,9
LYVZ221230HZSVJH03,3/5/1973,Transgender Person,Fairview,Hallows,Warbler,,937,Brander,Cushelly,Kalewe,$29000.12,13:00-21:00,10
JNHE521231MTSLST59,8/28/1996,Agender,Loeprich,Melvin,Stoughton,,956,Gamaliel,Damato,Hedderly,$13983.70,13:00-21:00,10
AQCO521131HTSTSA22,10/19/1986,Trans Male,Mitchell,Kinsman,Lakewood Gardens,2013,934,Dew,Dalston,Gager,$14065.09,13:00-21:00,9
SEKT621213MZSAIB58,2/27/1987,Cisgender Man,American,Luster,Armistice,143570,374,Pavel,Cuncarr,Grocutt,$17303.43,13:00-21:00,6
FHSQ121131HZSGVY55,3/22/1990,Neither,Corscot,Bashford,Esch,,120,Judah,Lowy,Greenman,$12520.76,11:00-19:00,6
CDXB421231HYNVHL98,8/10/1994,Gender Variant,Express,Clemons,Sherman,,649,Damian,Rudland,O'Hartnedy,$16121.70,11:00-19:00,9
RZCK621231MZSKZT97,4/4/1984,Two-Spirit,Russell,School,Karstens,,801,Wyatt,Manntschke,Attaway,$18969.67,13:00-21:00,10
EYUV921030MZSRLM37,5/30/1992,Cis Female,Judy,Novick,Scott,,176,Gabe,Gatehouse,Kean,$29779.02,13:00-21:00,7
UTWO720908HZSCFT17,7/5/1998,Cisgender Female,Vahlen,Montana,Sage,,643,Vasilis,Lant,Caddies,$20406.38,12:00-20:00,10
GXCP821231HZSXSL76,7/17/1981,Trans,Northland,Drewry,Sycamore,569 43,847,Alphonso,Baake,Blankman,$13358.00,10:00-18:00,9
BAXM821231HYNRKT70,2/17/1997,Transmasculine,Annamark,Northland,Glacier Hill,16004 CEDEX,761,Dougy,Ingarfill,Kinnach,$19231.92,13:00-21:00,9
ELAM120531HYNMRZ05,6/26/1982,Transsexual Woman,Morningstar,Columbus,Tennessee,,030,Win,Dunbavin,Butterley,$24261.51,11:00-19:00,7
VYQI021231HYNILS58,9/26/1986,Gender Variant,Anthes,Jay,Nevada,93900-000,360,Meredeth,Glackin,Hissett,$17350.95,12:00-20:00,10
IBHA620331HVZEHZ38,6/26/1987,Gender Variant,Moose,Ronald Regan,Bellgrove,303642,560,Stanleigh,Doole,Kalaher,$24569.09,13:00-21:00,9
NBJX221105MYNTQO03,6/1/1995,Intersex,Pine View,Rockefeller,Oneill,,293,Vinnie,O'Connor,Burwell,$22852.65,13:00-21:00,8
DVTM620731HVZQIO95,1/19/1990,Neither,Anniversary,Michigan,Crescent Oaks,,667,Christoffer,Siderfin,Easseby,$24547.60,9:00-17:00,8
TDCR321031HQRNLJ43,1/14/1974,Transgender Male,Declaration,Schlimgen,Troy,5409,009,Olly,Fernanando,Ledington,$14419.84,12:00-20:00,9
ISKH521115HYNHEP25,7/31/1970,Trans Male,Westridge,Independence,American,4023,671,Roth,Berrisford,Rakes,$25445.43,12:00-20:00,10
QOYT221110HYNBSX52,5/16/1990,Cisgender,Annamark,Crescent Oaks,Victoria,,944,Humphrey,McQuillin,Patershall,$24917.97,13:00-21:00,10
BORA421231MZSWCQ32,3/16/1992,Transsexual,Mitchell,Northland,Ohio,,533,Yale,Hampe,Beevor,$23222.68,11:00-19:00,10
LMCQ721004HYNOBG71,9/25/1974,Two-Spirit,Meadow Vale,Kropf,Mesta,,315,Sebastiano,Hickenbottom,Coxhell,$26229.33,13:00-21:00,10
EXOD221231HYNPNI84,3/30/1979,Cis Man,Bartillon,Scofield,Eastwood,,710,Gardiner,Linnemann,McAsgill,$11679.75,11:00-19:00,8
YXCM221231HZSEPB40,4/17/1990,Transgender Woman,Pepper Wood,Judy,Saint Paul,,774,Natty,Pinwill,Louthe,$14396.97,13:00-21:00,6
AJRW521108HTSLVS61,3/21/1974,Trans Person,Prairie Rose,Cambridge,Raven,,043,Earvin,Chastel,Mingardi,$22948.45,13:00-21:00,6
QUHO920531HYNYVE27,9/23/1989,Transsexual,Transport,Mayfield,Golden Leaf,,412,Zachery,Bart,Emerton,$22037.73,13:00-21:00,9
BWYU721231HVZGVK06,1/30/1975,Gender Questioning,Oneill,Bunker Hill,Havey,,898,Sly,O'Sheeryne,Gliddon,$13765.02,12:00-20:00,10
TSKF721112HYNDKS31,10/9/1976,Gender Fluid,Northview,Rutledge,Longview,,085,Vasily,Libbey,Iacofo,$16285.49,13:00-21:00,6
BMOH721231MZSIOQ37,2/9/2000,Trans Female,Bultman,Melrose,Nova,,459,Maxie,Life,Bollini,$20945.67,13:00-21:00,10
TIYN221230HYNZYT73,3/17/1991,Cisgender,Mayer,Anzinger,Mendota,,286,Freeman,Mayte,Pyke,$21921.65,11:00-19:00,9
TWJZ420830HZSIMD83,12/26/1983,Cisgender Female,Harper,Stang,Magdeline,456811,634,Felix,Bondesen,Barr,$16891.09,13:00-21:00,10
XHRF521000MZSSDM28,8/17/1990,Cisgender Man,Truax,Gina,8th,9104,727,Marc,Maleney,Peerman,$17306.68,11:00-19:00,8
AWBL921131MZSNXA36,6/30/1972,Cisgender Female,Melby,Myrtle,Haas,,089,Dannel,Merck,Pickworth,$28155.98,13:00-21:00,6
YBMO020802MZSLKQ74,12/17/1985,Cisgender Female,Hansons,Pleasure,Loeprich,39-225,214,Paddie,Frankes,Du Hamel,$20415.43,12:00-20:00,9
WCYM820231HZSTOM17,5/18/1987,Neutrois,Basil,Pond,Texas,624936,131,Bryan,Patesel,Ternault,$29065.14,10:00-18:00,10
UZIO321231MZSUSI53,5/13/1999,Androgyne,Grim,Commercial,Meadow Valley,641642,875,Urbano,Sandal,Deerness,$12295.83,10:00-18:00,10
QJHE021031HZSPXQ47,11/28/1981,Other,Lawn,South,Dayton,23663,967,Wash,William,Willard,$20253.98,11:00-19:00,8
FCDO321131MZSOUA37,8/5/1984,Cis Woman,2nd,Huxley,Village Green,678080,959,Jaymie,Immings,Sygroves,$25227.47,12:00-20:00,10
FVKY421130MZSPKN59,8/16/1985,MTF,Warner,Mesta,Troy,,597,Brit,Coit,Bulmer,$28520.13,12:00-20:00,9
AJSM921204HYNAJP55,1/22/1975,Trans Female,Thackeray,Oneill,Ryan,,151,Agustin,Boler,Quare,$14379.57,13:00-21:00,9
FCVU421030MYNFLZ02,12/10/1982,Trans Man,Debra,Basil,Crescent Oaks,2860-318,436,Yorker,Dodman,Parzizek,$14337.15,13:00-21:00,10
SAHE021019MZSWSZ24,9/4/1993,Cisgender Man,Old Shore,Ludington,Holy Cross,40489,948,Joshia,Fearick,Leatt,$20075.87,12:00-20:00,7
FYOA721230HZSTBP06,4/26/1997,Cis Female,Thierer,Bobwhite,Village,,759,Saxon,Parfrey,Bower,$17159.51,7:00-15:00,9
XMEZ621211MZSFCD98,5/4/1977,Transgender Female,Cherokee,Stang,Vermont,,284,Erin,Manginot,Goodday,$19810.25,13:00-21:00,9
KXWT521109HYNMZW99,4/2/1975,Trans Man,Lerdahl,Bayside,Eagle Crest,24011,724,Klement,Laste,Anstiss,$23380.73,13:00-21:00,10
ZGIP421231MZSGHJ41,10/1/1976,Transgender Man,Brickson Park,Ramsey,Lakewood,6109,035,Norris,Maddrell,Bisgrove,$26376.84,11:00-19:00,7
HCTR821231HTSZVF93,2/27/1979,Transsexual Woman,John Wall,Crescent Oaks,Linden,L9S,806,Karney,MacCumiskey,MacCarter,$19516.73,13:00-21:00,10
RIWP921231HZSBCT31,3/11/1990,Transsexual Male,Pearson,Reindahl,Manufacturers,,807,Antin,Mordanti,Stodit,$28897.96,13:00-21:00,7
TPCB121231MZSOBQ75,5/7/1983,Trans Man,Parkside,Waywood,Sutherland,,699,Adamo,Sloan,Meldrum,$28029.24,13:00-21:00,10
DYLZ121131HZSIDR39,6/6/1976,Cis Female,Hollow Ridge,Redwing,Corben,,073,Bartel,Sisey,Shimuk,$26986.92,8:00-16:00,10
SYVO621206MYNWQM05,5/22/1981,Male to Female,Ruskin,Iowa,Arrowood,,853,Raoul,Cornehl,Bolus,$18638.00,13:00-21:00,8
NCMA721131HYNADO49,8/19/1996,Androgynous,Leroy,John Wall,Summer Ridge,,248,Whitaker,Hambly,Trew,$13622.54,11:00-19:00,10
OYBU121231HYNLBZ44,11/25/1976,Cis Female,Fallview,Memorial,Morning,60200,454,Kerr,Knights,Quelch,$28972.20,10:00-18:00,9
RCFP421231MZSLID19,3/2/1990,Gender Variant,1st,Onsgard,Lien,,960,Kimball,Basini-Gazzi,Joynes,$10868.77,10:00-18:00,10
FRAQ421217MZSGXY54,6/7/1992,Neither,Drewry,Grim,Maryland,14-310,010,Derril,Volett,Tandey,$12100.79,12:00-20:00,10
HAFY021231HZSIMG12,6/16/1983,MTF,Oxford,Schurz,Sachs,,634,Drake,Cummins,Caveill,$16679.15,13:00-21:00,10
JCSV721231HZSJDP62,6/12/1979,Trans Female,Rutledge,1st,Talisman,,177,Alphonse,Lillicrop,Lyons,$10436.49,13:00-21:00,10
BAXL121231MZSNRA48,1/10/1991,Two-Spirit,Moose,Moulton,Claremont,87-601,289,Spence,Lewens,Paton,$12710.43,12:00-20:00,10
XMEP121031MZSXVJ08,7/26/1999,Transgender,Birchwood,Granby,Coleman,,990,Lance,Rainard,Leeburn,$19393.04,13:00-21:00,7
UTSR821230HYNJBW52,1/31/1988,Cis Male,Carpenter,Kim,Fieldstone,,846,Scotti,Pell,Ashfold,$14277.03,13:00-21:00,9
JMWK621231HZSPVR29,1/21/1990,Cis Female,Service,Carberry,Brown,,580,Harwell,Melan,Cromwell,$21377.01,12:00-20:00,10
LGOR721131HYNFHS43,7/30/1987,Transmasculine,Londonderry,La Follette,Schurz,J0S,209,Glendon,Muscat,Gligori,$26144.87,13:00-21:00,9
MABG021131MTSHRW67,12/14/1979,Non-binary,Colorado,Cordelia,Shopko,,388,Ram,Somerton,Noen,$22511.00,12:00-20:00,10
OUKR721113HZSJTN28,1/10/1990,Cisgender,Pleasure,Dovetail,Hudson,,184,Bradan,Ewells,Pargetter,$11844.41,10:00-18:00,7
QEKN921031HZSMLI10,12/9/1996,Cisgender Man,High Crossing,Jenifer,Eastwood,,905,Jud,Melan,Simister,$12551.74,12:00-20:00,9
NQBG121214MSRDCT06,8/25/1990,Bigender,Prairieview,Park Meadow,Melby,76000,163,Adan,Doogan,Lusk,$27709.88,13:00-21:00,9
AKOC621111HZSKIR14,10/22/1982,Transgender Female,North,Nevada,Orin,,751,Davidde,Knowling,Vallerine,$27535.41,13:00-21:00,9
AWUD721108HTSONU54,5/12/1974,Transgender Person,Sundown,Buhler,Merry,,827,Vin,Mattedi,Redmire,$14240.54,13:00-21:00,6
ZCIR520701MYNSHU61,6/12/1994,Cisgender Man,Muir,Schurz,Bartelt,,129,Jeddy,Sweedy,Cheley,$18894.80,13:00-21:00,10
KPXI121131MZSNEF83,9/16/1980,Cis Female,Upham,Thompson,Manitowish,,028,Hewett,Hryniewicki,Behnen,$14786.06,12:00-20:00,10
YFSW121131HYNQGL37,10/13/1976,Trans Woman,Kinsman,Cambridge,Pleasure,,952,Torin,Phillp,Hands,$28628.52,13:00-21:00,10
YQTF421231HVZQOJ34,1/24/1977,Transgender,Tennessee,Talisman,Armistice,,173,Barton,Greser,Pascow,$16336.29,13:00-21:00,7
QUKP721030MZSDSA15,12/22/1981,Genderqueer,Eggendart,Reinke,Menomonie,,812,Thibaud,Sloane,Crayton,$21734.85,11:00-19:00,10
ZPSM720431HTSKLF22,6/16/1978,Trans Woman,John Wall,Fremont,Delladonna,,165,Donny,Pleaden,Lanahan,$10538.39,11:00-19:00,8
VEAJ321219HZSROU45,6/18/1982,Transsexual Female,Blackbird,Grayhawk,Logan,05-280,345,Mal,Broadway,Balshen,$17460.98,12:00-20:00,10
YIAH020807HVZEIX36,7/27/1994,Transfeminine,Burrows,Declaration,Mcguire,,479,Tedmund,Gallop,Brotherhead,$19558.55,13:00-21:00,8
NVGR021231HVZHTF30,7/11/1997,Transgender Person,Merchant,Lake View,Anthes,,330,Wallace,Larne,Dowman,$23017.57,13:00-21:00,10
WOLJ320331HTSEBM70,8/2/1972,FTM,Fairfield,5th,Holy Cross,,827,Garwood,Curton,Tigner,$24726.61,13:00-21:00,7
UPWH521115MZSVRD13,9/6/1994,Genderqueer,Scofield,Atwood,Hanson,,776,Ewen,Fatscher,Washbrook,$18538.63,9:00-17:00,8
IZGR221231HZSMHO26,2/26/1986,Female to Male,1st,Waxwing,Hagan,,393,Guthrey,Linton,Espinal,$11195.45,13:00-21:00,8
FWEQ321231HZSCOS16,12/10/1995,Cis Man,American Ash,Westridge,Golden Leaf,,279,Natty,d'Escoffier,Wandless,$12754.28,12:00-20:00,10
LVRY721207HZSPAC24,12/11/1971,Cisgender Woman,Shasta,1st,Larry,,242,Lorenzo,Kas,Dacks,$16926.04,10:00-18:00,10
YJGC620730HZSYJR33,10/16/1975,Cis,Victoria,Buhler,Mendota,,257,Merell,Beche,Hellmore,$27661.88,8:00-16:00,8
IVOG621131HZSARM54,12/25/1971,Bigender,Ludington,Michigan,Bellgrove,,677,Jody,Tutsell,McEntagart,$17941.37,12:00-20:00,10
MXGU421210HTCAKO33,7/24/1978,Intersex,Chive,Crescent Oaks,Starling,9754,120,Cori,Hanne,Tavinor,$25925.73,10:00-18:00,8
BZXH821214MZSJEZ57,12/6/1990,Non-binary,Towne,Sachtjen,Forest,,130,Kelsey,True,Balnave,$27777.10,10:00-18:00,10
RZOQ121117HZSXQT81,1/21/1985,Genderqueer,Hermina,Eastlawn,Caliangt,929-0323,380,Burk,Dennert,Pauly,$29280.10,12:00-20:00,9
NGAM421131MZSILU53,10/14/1976,Male to Female,Blue Bill Park,Delaware,Forest Run,,002,Hurley,Slimings,Blackadder,$28500.02,12:00-20:00,9
ARPN021230HYNIGD38,5/5/1971,Cis Woman,Hoard,Merrick,Grayhawk,28020,878,Clayson,Navarro,Gregolin,$17950.14,13:00-21:00,8
GKQM920731HZSAUJ81,4/4/1978,Trans Woman,Northridge,Carberry,West,,893,Simeon,Neylan,Bodicum,$26728.38,9:00-17:00,9
YWKR221031MZSMJR58,1/4/1978,Cisgender Man,Mayer,Sutherland,Walton,,954,Odo,Anderbrugge,Rosten,$28984.07,13:00-21:00,9
VGTW821231HTCOTX94,2/1/1970,Non-binary,Meadow Valley,Magdeline,Prairieview,815 24,688,Ingemar,Brazelton,Knevit,$19160.34,12:00-20:00,10
FHCI220416HYNPFO38,2/8/1991,Two-Spirit,Milwaukee,Michigan,Elgar,,367,Jesse,Signe,McGrory,$19281.24,12:00-20:00,9
XAZS320014MZSYDI15,3/20/1991,Cis Man,Forest Dale,Michigan,Clemons,734007,534,Fidel,Traske,Waltho,$17387.23,13:00-21:00,10
SUPE721114HZSNMT47,12/4/1994,Cis Woman,Butterfield,Butternut,Fair Oaks,,365,Devlin,McKag,Svanetti,$19239.23,11:00-19:00,10
OLRB720731HYNKHV66,3/24/1980,Bigender,Bashford,Springs,Loftsgordon,,692,Coleman,Mattinson,M'Quhan,$29581.03,13:00-21:00,9
PYEL121231MZSFKC99,12/30/1981,Transsexual Female,Crowley,John Wall,Morrow,13270-000,861,Baldwin,Perry,Demicoli,$15365.38,8:00-16:00,10
VQKN620231HYNMKT56,12/16/1996,Female to Male,Lindbergh,Express,Sloan,,737,Pietro,Markie,Gumbrell,$10252.70,12:00-20:00,10
ELKI721231MZSCTK25,2/22/1971,Transsexual Man,Service,Autumn Leaf,Fremont,,098,Pearce,Bilby,Breukelman,$20116.91,13:00-21:00,10
VRCZ021110HTSKEF70,8/31/1994,Transgender Person,Trailsway,Mockingbird,Golf,,661,Saleem,Moores,Jacobbe,$28278.08,13:00-21:00,10
BZEF421231HTSJAC39,5/21/1990,Transgender Male,Tony,Bunker Hill,Heath,34-481,330,Anderson,Oldis,Comford,$10097.42,13:00-21:00,7
XSON021207HVZCEV89,7/10/1986,Other,Roxbury,Division,Bobwhite,,535,Heywood,Jansey,Whiteside,$18642.07,12:00-20:00,7
XLIH821130MYNUDS38,12/26/1980,Cis Woman,American,Rusk,Hoffman,170 66,636,Faulkner,Houldcroft,Richardes,$18128.75,13:00-21:00,10
MPBF721111MTSJNU16,8/8/1994,Transsexual Man,Carberry,5th,Arkansas,94024 CEDEX,873,Spenser,Butner,Downie,$27750.24,9:00-17:00,7
PLJD721131HYNNHE64,9/29/1986,Gender Fluid,Esch,Mosinee,Sloan,,666,Ker,de Merida,Minnette,$19426.50,12:00-20:00,10
UPBQ821131HZSLKI97,6/11/1985,FTM,Little Fleur,Orin,Nova,,493,Shelby,Veasey,Monget,$16408.61,13:00-21:00,10
QWZV421031HYNFGA90,9/13/1993,Trans,Rigney,Golf,2nd,,570,Harold,Oaks,Manjot,$10019.04,10:00-18:00,9
DZKA320715HZSRIO22,7/12/1989,Transmasculine,Summer Ridge,Quincy,Beilfuss,357637,368,Patty,Curedale,Blesdill,$22962.24,12:00-20:00,7
DSFM721231MYNFTQ07,9/25/1983,Cis Male,Express,Victoria,Crownhardt,32801,082,Kareem,Ward,Basili,$22391.14,13:00-21:00,10
ORMX521231HZSVSO58,4/8/1987,Transgender Man,Lawn,Northland,Waywood,,681,Berke,Darinton,Setford,$10952.57,13:00-21:00,8
EHZR121231MYNQFT38,5/11/1973,Cis Woman,Moulton,Meadow Vale,Delaware,37260-000,279,Free,Worboys,Bedle,$20899.41,11:00-19:00,7
SVLC721230HTSQZR33,8/5/1987,Genderqueer,Randy,Algoma,Armistice,1304,720,Daryle,Southouse,Huzzay,$16568.89,13:00-21:00,9
DIOZ321131HYNGEV92,3/11/1982,Trans Woman,Kinsman,Hoffman,Gina,L-5408,307,Maximo,Harrie,Godfroy,$17240.35,13:00-21:00,7
SGWV221130HYNGJP53,2/9/1984,Non-binary,Westport,North,Dixon,5417,525,Quincey,Renol,Pieterick,$18373.66,12:00-20:00,7
CXBG321230MYNSRJ41,7/2/1975,Female to Male,Briar Crest,Toban,Ryan,,423,Jephthah,Matlock,Wildman,$21456.68,13:00-21:00,10
FXIZ821110MYNUFX53,12/20/1996,Androgyne,Stoughton,Anderson,Autumn Leaf,3100,365,Nickolai,Fairholme,Tonn,$28711.04,13:00-21:00,8
TMJY520110MYNJRD57,11/24/1987,Transgender Man,Sachtjen,Harper,Springview,V9G,143,Norrie,Ivanshintsev,Pocknoll,$22293.48,10:00-18:00,9
AOLM621203MZSCAP90,4/4/1986,Cisgender Man,Fremont,Northwestern,Westend,81140,101,Sigismund,Schelle,Bernardon,$17286.15,13:00-21:00,10
JDTX321231MVZVNO03,6/18/1989,Transsexual,Mifflin,Bonner,Helena,,268,Gorden,Giacovazzo,Brock,$19697.66,12:00-20:00,8
UPEQ921218MYNXQH41,3/3/1981,Cisgender,Monterey,Milwaukee,Raven,,653,Riley,Lanham,Ruddick,$17768.11,11:00-19:00,10
WDNY321130HYNTHQ51,11/1/1987,Intersex,Ryan,Westridge,Butternut,05-160,454,Sydney,Tine,Folger,$15067.54,12:00-20:00,10
KCIJ121208HYNOTV84,4/22/1993,Cisgender Woman,Havey,Pankratz,Warner,,753,Fons,Riedel,Syder,$18569.60,13:00-21:00,9
BXWE821230MTSRUQ00,3/8/1981,Cisgender Female,Eastwood,Spenser,Mariners Cove,,392,Eal,Wasling,Mileham,$11714.25,12:00-20:00,9
AZUO021231MZSEUN71,2/10/1982,Transsexual Male,Bonner,Eastlawn,Heath,,448,Curtis,Cordes,Slavin,$18607.20,12:00-20:00,8
SJLE021103HTSODS31,9/3/1996,Two-Spirit,Paget,Shoshone,Mariners Cove,4740-497,461,Pat,Piris,Becken,$12642.03,12:00-20:00,10
FWQE621015MZSLKU22,6/5/1997,Intersex,Monica,Melrose,Corscot,60112,603,Hartwell,Hembry,Senter,$19074.18,12:00-20:00,9
AMRS121231HZSXZV37,2/2/1974,Gender Nonconforming,Clemons,Farragut,Marcy,54784,138,Richie,Enevold,Boult,$14827.08,11:00-19:00,10
OBYT321231HZSZEF97,5/19/1983,MTF,Randy,Brown,Kedzie,44190,937,Lyn,Bruna,Shaudfurth,$11179.05,13:00-21:00,7
LKNC521231MZSWYU88,2/1/1978,Two-Spirit,Blackbird,Linden,Cherokee,592 01,260,Decca,Huskinson,Hewlings,$27912.03,12:00-20:00,10
ZHWM521102HZSZKY02,9/8/1995,Transsexual Male,Spaight,Carioca,Clove,59376 CEDEX 1,221,Jean,Ramalho,Squibbes,$26615.05,11:00-19:00,8
EBAT121231MYNTJF80,6/25/1986,Gender Questioning,Forster,Mendota,Londonderry,,275,Welbie,Bartelet,Bartholomieu,$26626.45,9:00-17:00,10
OWYZ621231HYNDIC84,10/3/1987,Trans Man,Blaine,Graceland,Hermina,32255,806,Winnie,Handy,Rubery,$16899.42,12:00-20:00,6
OKHB721230HZSQXK59,4/20/1988,Gender Variant,Mitchell,Michigan,Butterfield,99-416,910,Tucky,Pochet,Plenderleith,$17502.69,12:00-20:00,10
EKSY720919HZSZHQ22,6/29/1993,Bigender,Canary,Acker,Dawn,10600,762,Nicholas,Quade,Braune,$11746.37,9:00-17:00,8
IUWR321231HYNXLE37,7/25/1973,Female to Male,Logan,Carberry,Ruskin,7104,069,Cort,Giveen,Cranton,$17455.94,10:00-18:00,9
BMJA020430MSRKZH62,1/20/1990,Cis,Dayton,Farwell,Luster,05-306,559,Cristobal,Hardan,Charette,$12222.99,13:00-21:00,10
EBHC421230MYNBMK02,5/29/1985,Gender Nonconforming,Green Ridge,Hanover,Buell,,517,Westley,Rickardsson,Pietzker,$20031.14,12:00-20:00,9
ZFLG921031MTCIUD28,1/14/1998,Trans Person,2nd,David,Kenwood,3187,158,Artemis,Swait,Waddie,$23845.81,13:00-21:00,6
KABV721131MYNMQT52,11/6/1970,Trans,Cottonwood,Grasskamp,Becker,35513 CEDEX,687,Carleton,Granham,Scowcroft,$19048.94,10:00-18:00,10
AWFN221131MZSQVD33,4/21/1977,Cisgender Woman,Melody,Summerview,Clove,,298,Temp,Meeke,Kleinstern,$21727.38,13:00-21:00,10
OBWQ321230MSRQXC68,8/19/1994,Bigender,Brentwood,Kedzie,Shoshone,70502,406,Carlos,Liddell,Piggford,$20941.15,13:00-21:00,10
EKHJ321031HYNYZF33,2/25/1983,Transgender Person,Mccormick,Sloan,Fairview,,515,Burl,Theis,McFaul,$25828.45,13:00-21:00,10
ZKJM521231HZSZQT99,7/19/1986,Transgender Woman,Schiller,Jay,Mayfield,,081,Lawton,Alywin,Gainforth,$24992.11,11:00-19:00,10
YUDV621205HTSPHU21,11/14/1981,Male to Female,Barnett,Briar Crest,Arapahoe,293 93,968,Forrester,McGriffin,McLarty,$25429.68,12:00-20:00,10
LTNY721231HTSUVP56,9/3/2000,Androgyne,High Crossing,Brown,Melvin,D04,386,Frants,Blanning,Oganian,$12216.73,7:00-15:00,10
CTYV621131MZSYPS94,2/6/1994,Androgyne,Bluejay,Cambridge,Manitowish,,984,Dannie,Wellbeloved,Jahnisch,$20148.02,13:00-21:00,10
IDSU021231HZSCYE66,8/7/1974,Bigender,Hauk,North,Nelson,678030,460,Harbert,Janicek,Wannop,$16414.16,12:00-20:00,10
XBQV421200HVZING09,12/20/1982,Agender,Corry,Anhalt,Hoffman,19318 CEDEX,502,Vasily,Hazeldene,Sills,$14878.85,10:00-18:00,9
NMBH420131MVZAFZ58,12/30/1999,Two-Spirit,Mifflin,Loftsgordon,Hollow Ridge,,339,Roddy,Pinchin,Pullan,$18261.02,11:00-19:00,7
WYXS921230HVZMKN01,6/5/2000,Transgender Man,Sunfield,School,Nobel,,244,Delmer,Parlour,Felmingham,$14641.41,13:00-21:00,10
ZEAB821131HYNIRJ31,2/25/1992,Transgender Woman,Oakridge,Crest Line,Lakewood,30001,014,Shanan,Kaine,Brazelton,$24900.75,13:00-21:00,10
OXDH421231MZSDVO55,2/15/1975,Cisgender Man,Eggendart,Starling,Macpherson,,604,Dallas,Suthren,Plumbridge,$14304.89,11:00-19:00,9
AKJR921102MYNHIG62,9/26/1989,Intersex,Nova,Shopko,Lillian,,240,Jesus,de Lloyd,Wilce,$16642.91,12:00-20:00,8
ZHOG621204MYNITZ90,4/13/1979,Trans Female,Russell,Merrick,Vera,,971,Hendrick,Ghelardi,Grigorini,$18296.34,12:00-20:00,10
YLPA621130MSLFMC72,5/7/1998,Transmasculine,Melody,Forster,Lake View,4336,647,Alexander,Coppeard,Wyburn,$21472.75,12:00-20:00,10
OCIG821031HZSURW41,7/31/1983,Neither,Barby,Bartillon,Debs,,113,Conney,Hek,Le land,$15519.91,11:00-19:00,10
HKRW421231HVZFEM76,12/11/1978,Gender Variant,Mallard,Dixon,Rutledge,15740,592,Eal,Saurat,Nardrup,$26841.09,10:00-18:00,10
RZPV521219MZSAUJ99,4/8/1973,Transgender Man,Cherokee,Saint Paul,Pawling,49417 CEDEX,101,Maxie,Tomet,Oldridge,$16507.85,7:00-15:00,8
VEQT721230HVZMKF74,2/5/1996,Agender,2nd,Alpine,Redwing,1375,844,Yvor,Franzonetti,Hagan,$19189.64,7:00-15:00,6
CTHZ921012MTCLXR03,11/13/1983,Cis Woman,Rockefeller,Walton,Havey,6100-218,572,Brendon,Sandes,Dominguez,$26534.05,13:00-21:00,10
JPYA521231MYNWLP35,2/1/1996,Bigender,Mifflin,Sunbrook,Haas,,803,Shaun,Fulk,Northen,$23351.08,13:00-21:00,10
MUPO521212MTCAVI11,9/9/1984,Cisgender Woman,2nd,Lunder,Maywood,,047,Winfred,Soulsby,Matthesius,$15621.73,13:00-21:00,10
ROTV621130HSLQUF53,6/4/1982,Non-binary,Dixon,Lunder,Lakewood Gardens,,317,Standford,Tweede,Alessandrini,$24371.25,13:00-21:00,10
AITL921230HVZXFQ84,12/28/1978,Transgender Woman,Warrior,La Follette,Alpine,,654,Darnell,Siggens,Snoddon,$12919.01,13:00-21:00,10
STQL121213MZSJHQ21,12/29/1983,Agender,American Ash,Messerschmidt,Sugar,,920,Demetris,Leppingwell,Brierly,$19590.47,13:00-21:00,9
QUHO321031HVZDXL11,8/24/1983,Transgender Woman,Vidon,Clarendon,Ludington,,262,Quinton,De Domenico,Coupman,$29076.97,9:00-17:00,9
TQRF021230MZSKWT62,10/10/1979,Cis Woman,Prentice,Hooker,Colorado,8407,718,Gabby,Lovick,Yurenin,$26322.94,13:00-21:00,10
YVIZ321231HYNVSG17,3/6/1991,Transgender Person,Nevada,Farragut,Charing Cross,,632,Duffie,Gerritsma,Shillom,$12947.23,13:00-21:00,10
DGUJ821104MVZIZV51,10/1/1970,Transfeminine,Packers,Kings,Aberg,,779,Toby,Gorghetto,Letherbury,$29510.56,13:00-21:00,6
TASO021131MZSTOU81,10/24/1989,Cisgender Male,Riverside,Rutledge,Dahle,K36,532,Kristo,Birtwisle,Pacher,$11957.26,13:00-21:00,10
PXVK121112HZSTKH12,11/7/1997,Transsexual Person,Old Shore,Valley Edge,Hoepker,D17,406,Malchy,Antyukhin,Robillard,$24090.83,10:00-18:00,9
GNJI821230HVZMKE37,12/3/1999,Transmasculine,Golf View,Park Meadow,Autumn Leaf,,299,Forbes,Strodder,Gettone,$24324.29,13:00-21:00,10
CWZK821117MVZNOS47,5/11/1973,Gender Fluid,Hazelcrest,Declaration,Coolidge,,665,Myles,Mariyushkin,Bolden,$17721.15,11:00-19:00,8
MYWU621206MZSXSV68,2/23/1984,Cis Woman,Dawn,Sycamore,Northwestern,58135-000,619,Vidovik,Matanin,Lutman,$22956.24,13:00-21:00,7
AHYI420331HVZFUV84,8/6/1986,Male to Female,Laurel,Moland,Hintze,27944,571,Skipton,Benns,Gerardot,$26366.79,13:00-21:00,9
MYGZ821130MVZZKC60,11/2/1986,Transmasculine,Larry,Hooker,Meadow Valley,397243,155,Moritz,Limb,Geram,$25834.69,10:00-18:00,9
XSHZ821210HZSBOX66,9/4/2000,Transsexual,Calypso,Duke,Ramsey,,035,Sigmund,Tynnan,Extal,$17007.45,13:00-21:00,10
HOMC321231HZSFOS72,4/18/1978,Transgender Female,Shopko,Glendale,Eliot,,044,Rodrigo,Trahear,Ewence,$17053.83,13:00-21:00,7
VWGQ221106MZSNDR88,8/3/1988,Transgender Male,Heath,Hoffman,Steensland,,215,Fax,Korejs,Cavie,$12113.70,13:00-21:00,10
DKGH420931HZSWIK75,2/20/1976,Cisgender Female,Buell,Dottie,Commercial,90036,747,Hunfredo,Feldmus,Cabera,$16606.55,12:00-20:00,10
OCJQ221231MTSGCA96,4/27/1995,Cisgender Man,Victoria,East,Dexter,,194,Bogey,Pennycord,Kinastan,$14329.30,11:00-19:00,7
RIES921231HZSNOV79,10/18/1976,Transsexual Male,Bunting,Dryden,Memorial,84105,869,Averill,Dairton,Leipelt,$18022.18,11:00-19:00,10
JHXG721130HYNALE35,3/22/1997,Transgender Woman,Hoffman,Holmberg,Brown,6103,088,Hy,Muslim,Cozby,$14625.70,13:00-21:00,10
BWTR521231MZSAUJ55,9/5/1986,Genderqueer,Kings,Sherman,School,,755,Jonah,Bellwood,Heinemann,$12416.29,12:00-20:00,9
UWDC320330MVZTLO49,8/7/1972,Transgender Man,Ridgeway,Bayside,Welch,779-3610,204,Delmar,Haselgrove,Arundale,$18267.62,12:00-20:00,10
FVJA921207HZSJPW80,4/30/1980,MTF,Scoville,Spohn,Glacier Hill,,083,Tadeas,Ripper,Finnes,$22433.51,12:00-20:00,9
TIZC421131MZSNOS63,3/6/1995,Transsexual Female,Sutteridge,Bay,Oak Valley,78204 CEDEX,336,Winthrop,Pantry,Hann,$14672.52,12:00-20:00,9
BLFE321231HVZVMB26,5/20/1972,Cisgender Man,Arkansas,Kingsford,Prairieview,,443,Lockwood,Hearley,Jaan,$19897.69,13:00-21:00,10
HPQV621230MZSDPW21,5/2/1973,Transsexual Man,Ryan,Browning,Fieldstone,MD-3401,311,Joe,Crocumbe,Canet,$29710.68,10:00-18:00,8
QGKT520531MZSARM35,7/9/1994,Transgender,Lien,Express,Kipling,662927,345,Isaiah,Treffrey,Pinkard,$23234.75,12:00-20:00,10
HDON121031HZSWFU80,6/8/1994,Transsexual Female,Bunting,Parkside,Melrose,393995,712,Oliver,Romagosa,Stutt,$20424.64,12:00-20:00,8
SVND621118HZSKBR61,12/21/1986,Genderqueer,Armistice,Burrows,Dapin,999-6861,602,Timothy,Woodage,Hodgon,$23563.58,13:00-21:00,9
BIRF221115HVZGWL23,2/6/1987,Transfeminine,Merrick,Harper,Katie,9506,174,Christoph,Heeley,Gianneschi,$13178.61,12:00-20:00,6
TSZD521231HZSEIU67,7/9/1979,Trans Female,Holy Cross,Sugar,Straubel,452800,406,Tremaine,Couronne,Carnegy,$11399.31,13:00-21:00,9
SXUO721231HZSDXA37,2/2/1981,Androgyne,Lerdahl,Macpherson,Jenna,5608,784,Staffard,Crowche,Brunner,$12024.53,12:00-20:00,10
QWTG721210MTSSZE81,5/7/1975,MTF,Westerfield,Roth,Heffernan,,783,Lodovico,Brierton,Elsley,$28631.87,13:00-21:00,10
WBDG221030MZSAPY19,3/29/1990,Transgender,Manley,Del Mar,Eastwood,2540-702,185,Corbin,Camm,Bullene,$16374.13,13:00-21:00,10
PDHO521010MZSJPT34,8/28/1998,Bigender,Eastwood,Claremont,Pennsylvania,,537,Gaylor,Batchan,Ervine,$12342.51,12:00-20:00,10
UWEC021131HZSKHJ07,8/18/1982,Cis Male,Spaight,Delaware,Hanson,964-0432,664,Waldemar,Woollacott,Jeyes,$26611.01,13:00-21:00,8
RVDY620031HVZDWQ63,10/2/1981,Androgynous,3rd,Melrose,Vernon,671410,197,Hewitt,Milward,Werny,$10345.21,12:00-20:00,10
ICQB921030HSRDJR33,9/4/1974,Transsexual Female,Old Gate,Sutherland,Bashford,,778,Virgie,Panting,Soper,$29067.65,12:00-20:00,10
ZWCU621214HYNAHZ83,2/13/1972,Intersex,Butternut,Commercial,American,V94,489,Geordie,Joysey,Dundon,$25461.46,13:00-21:00,9
CKYE621231MZSOPS08,12/16/1996,Female to Male,Vahlen,Spohn,Maywood,82140,284,Goddart,Tuftin,Pittwood,$12772.47,9:00-17:00,9
TWXV721200MYNRQF21,10/1/1973,Transmasculine,Moulton,Mifflin,Garrison,,542,Elden,Mc Curlye,Charrier,$22951.65,12:00-20:00,10
OPLD821216HSRJSY64,6/1/1998,Transgender Woman,Straubel,Hauk,Bowman,S7W,309,Banky,Boshell,Somerlie,$27088.11,13:00-21:00,10
BINF821231MYNXSR48,4/30/1989,Neither,Milwaukee,Sloan,Corben,,457,Mayne,Hanney,Janecek,$29865.40,13:00-21:00,9
XYDC721030MSPEZQ47,12/25/1983,Non-binary,Tomscot,Raven,Cottonwood,96980,882,Marty,Kleinplatz,Malkie,$25676.35,11:00-19:00,10
FEZA521231MZSIOV58,9/5/1978,Gender Nonconforming,Pond,Hoepker,Hoard,,030,Zach,Levison,Leaver,$26527.60,13:00-21:00,9
UOIC321117MYNDTW90,3/5/1989,Gender Questioning,Lukken,Maywood,Kinsman,9940,979,Guss,Roffey,Sybry,$22629.90,12:00-20:00,8
ZSMI021131HZSDJQ80,5/15/1989,MTF,Glendale,Clyde Gallagher,Helena,,541,Kristoffer,Heeran,Attaway,$16753.37,12:00-20:00,10
SCTJ321205MTSKVC97,12/6/1975,Transsexual,Sugar,Bartelt,Hanson,613594,641,Sawyere,Baroche,Keysall,$23924.15,13:00-21:00,8
SGUC221131HTSKSJ22,3/22/1979,Transgender Male,Tony,Mifflin,Portage,92398 CEDEX,126,Ignatius,Bescoby,Berwick,$11249.54,13:00-21:00,6
UHDP021119HZSRLZ66,4/11/1972,Neutrois,Dunning,Redwing,Stoughton,,939,Jakob,Taylder,Paule,$14546.38,13:00-21:00,9
RGKP020230MZSFJC24,5/27/1976,Cis Female,Park Meadow,Ludington,Cordelia,,073,Davin,Lawty,Kanter,$21074.17,13:00-21:00,7
FLWD221231HTSVZD89,8/25/1998,Androgynous,Erie,1st,Dennis,,957,Temple,Considine,Caramuscia,$19980.88,13:00-21:00,10
FIKP321031HYNOYM13,7/15/1995,Pangender,Monterey,Donald,Ronald Regan,40951,296,Teddy,Lamb-shine,Evens,$28558.95,13:00-21:00,10
LYMS621231HYNEOD07,5/9/1997,Trans Man,Esch,Ryan,Alpine,,268,Robin,Tuffley,Neal,$22572.92,12:00-20:00,10
KWDE421231HZSMOI26,4/2/1980,Transmasculine,Twin Pines,Pleasure,Kingsford,,413,D'arcy,Davenport,Baggallay,$11498.36,12:00-20:00,9
VTUR820830HZSRPS78,3/27/1971,Androgynous,Thompson,Old Gate,Transport,23275,918,Burgess,Mariaud,Baxandall,$15195.15,10:00-18:00,6
WRFA121131HZSIRT04,2/23/1974,Other,Clemons,Packers,Garrison,,818,Rowland,Townby,Sizzey,$19988.83,12:00-20:00,10
LOCX321231MZSILN87,7/8/1972,Transsexual Woman,Express,Corry,Arkansas,30170,178,Tucker,Burwell,Crees,$23804.56,10:00-18:00,10
CSLQ321231MVZPAX75,9/16/2000,Cisgender Woman,Merchant,Dahle,Schiller,619221,272,Anderson,Coleby,Klemke,$18510.85,13:00-21:00,10
VTOJ921131HZSPNS14,9/11/1973,Gender Nonconforming,Dorton,Nancy,Forest Run,,219,Glynn,Camplin,Stiffkins,$18145.46,13:00-21:00,10
BCQW921130HZSUHK08,11/6/1970,Cisgender Male,Old Gate,Chive,Merchant,,408,Alwyn,Tuny,Levermore,$15536.65,13:00-21:00,10
WXDC321211MYNUNG14,11/28/1976,Transgender Male,Armistice,Bayside,Prentice,,779,Ashlin,Harmer,Phin,$25335.31,11:00-19:00,10
XDJH021030MVZADG54,4/20/1972,Cisgender Woman,Tomscot,Barby,Del Sol,,548,Skipton,Woolf,Hallowes,$10348.26,12:00-20:00,9
LJEY921016HSRYID59,12/6/1979,Neutrois,Ilene,Vidon,Mendota,,725,Hewie,Scritch,Breakwell,$19743.52,13:00-21:00,10
PXIL821231MZSZJY53,6/7/1992,Agender,Annamark,8th,Upham,,581,Hugh,Danher,Tanswell,$13696.31,13:00-21:00,10
PYZW221230HZSVCZ65,6/12/1977,Two-Spirit,Continental,Hallows,Novick,,961,Arney,Burchnall,Barrar,$15720.25,13:00-21:00,9
YRZV221131MYNNTL01,9/14/1973,Female to Male,Coleman,Dwight,Grasskamp,,875,Alexandre,Goolden,Nerger,$10872.27,12:00-20:00,10
TCIU221031MZSTDE94,4/18/2000,Intersex,Stephen,Stoughton,Coolidge,,286,Hugh,Radford,Bollis,$24679.93,13:00-21:00,10
KDPE520631MYNSBD15,9/1/1977,Transmasculine,Merrick,Harper,Loeprich,,487,Dougy,Hattrick,Grebner,$10240.21,13:00-21:00,9
YATK420719MZSYMP87,2/12/1999,Transfeminine,Hoard,Commercial,Pearson,,907,Noland,Cecchetelli,Stockhill,$17301.16,12:00-20:00,10
TIKN820600MZSMOP70,9/20/1975,Pangender,Jenifer,Bartillon,4th,06005,675,Raimondo,Verry,McTiernan,$11123.20,12:00-20:00,6
SFEO121230HZSCKR04,3/3/1972,Transgender Person,Sheridan,Donald,Onsgard,171 05,454,Angelo,Layzell,Flack,$15217.56,13:00-21:00,10
ONUV121130HYNRNY25,8/10/1989,Cisgender Man,Fremont,Goodland,Stuart,A63,636,Lalo,Whyman,Boast,$25070.27,11:00-19:00,10
CRHB320614MZSKMF48,11/7/1972,MTF,Vera,Delaware,Fallview,,517,Willem,Advani,Shorto,$12114.62,13:00-21:00,10
VART621131MZSEAQ74,2/22/1979,Trans Person,Lukken,Eagan,Heath,,438,Felike,Plum,Greenley,$25656.86,10:00-18:00,9
GSQM421231MZSXRQ33,9/2/1974,Bigender,Johnson,Kensington,3rd,974 36,085,Lesley,Marshfield,Allard,$15922.40,13:00-21:00,7
KVGB121031HZSVPW08,4/11/1986,Two-Spirit,Michigan,Vera,Sauthoff,,793,Selby,Bruinsma,MacPeake,$21000.64,13:00-21:00,10
CBOV921231MYNMBY37,2/1/1992,Bigender,Dryden,Anniversary,Westport,,855,Alexandre,O'Keeffe,Bilsland,$20689.07,11:00-19:00,10
LVZT921031HSRKRG04,10/23/1983,Neutrois,Norway Maple,Mayfield,Killdeer,67704 CEDEX,768,Darill,Dolman,Bockman,$20024.66,12:00-20:00,10
QAML921031MZSHTZ23,5/22/1993,Bigender,Hermina,Fuller,Loftsgordon,,970,Jared,Tesyro,O'Fielly,$12971.32,13:00-21:00,7
IOPH720131HYNRJQ95,8/6/1982,Transfeminine,Gerald,Pine View,Stone Corner,5844,738,Barton,Espadater,Pelham,$19466.47,13:00-21:00,10
EBSW821130HTSHSG71,8/23/1980,Male to Female,Veith,Burning Wood,Bay,6651,553,Demetrius,Dumpleton,Thayre,$18680.78,12:00-20:00,10
TMRO421131MZSDPM38,4/30/1993,Gender Questioning,Butterfield,Delaware,Amoth,,044,Farrel,Rizzelli,Harower,$10578.46,13:00-21:00,6
CTPQ421205MYNEQA13,1/28/1998,Gender Variant,Alpine,2nd,Fremont,,834,Vincents,Klaves,Treanor,$15899.34,12:00-20:00,10
CQWO321219MYNIYM96,12/30/1975,Transsexual Male,Jackson,Dapin,Hallows,446209,437,Thorndike,Graith,McClune,$11064.57,13:00-21:00,10
GHYL321231HZSGIB06,5/20/1993,Non-binary,Hanover,Waubesa,Emmet,,758,Dennie,Haye,Lanning,$16271.17,13:00-21:00,10
ZBTO221131MYNPAH08,11/23/1993,Intersex,Cody,Kinsman,Westend,,108,Kendrick,Favey,Vedmore,$17756.40,13:00-21:00,9
OEFA821014MZSUKM88,11/27/1972,Cis Female,Rieder,Gulseth,Emmet,20170,783,Quill,Effaunt,Haydney,$23612.85,13:00-21:00,9
EJKL921231HZSJKP00,7/19/1977,MTF,Huxley,Fairfield,Maple,311-1500,475,Major,Clearie,Sunderland,$17633.95,13:00-21:00,7
WJSC220631MYNAOM85,12/4/1980,Pangender,Raven,Johnson,Del Mar,32-854,684,Doy,Posten,Mallinson,$22962.58,12:00-20:00,10
ZALH621231MZSZAC42,7/17/1971,Cisgender,International,Ridgeway,Moland,524039,231,Haven,Synan,Aldus,$15402.54,13:00-21:00,9
CKBM921231MYNWMO10,2/25/1991,Transfeminine,Evergreen,Bashford,Ludington,,517,Jeramie,Caldaro,Quig,$26768.95,11:00-19:00,8
BXYK521231MTSWNT65,9/23/1972,Cisgender Woman,Lighthouse Bay,Vera,Hintze,,063,Des,Noar,Bloore,$25201.62,12:00-20:00,9
QTCS621205HZSVRH30,11/14/1977,Cis Woman,Bay,Upham,Bunker Hill,439 42,231,Harlan,Bernadon,Siggee,$11986.26,13:00-21:00,6
HJDZ321131HZSFKQ66,3/29/1987,Neither,Mandrake,Gulseth,Harper,,788,Wyatan,Hattoe,Weathey,$18982.02,13:00-21:00,10
LWJO521131HZSXSO46,7/20/1977,Bigender,Scofield,Evergreen,Morningstar,442-0889,818,Isacco,Milier,Stayte,$27383.12,13:00-21:00,8
VTJM321131HYNUYV43,6/9/1984,Female to Male,Heffernan,Veith,Westend,,958,Car,Causer,Lesslie,$17163.20,12:00-20:00,10
TUYR821231HSLROA91,1/8/1980,Transmasculine,Heath,Petterle,Namekagon,3310,340,Ingmar,Kuhle,Beck,$29394.38,13:00-21:00,9
AOHP021231MZSGUX07,4/17/1973,Neutrois,Coleman,Holy Cross,Park Meadow,,715,Wendel,Bartrap,Jozwik,$16582.30,13:00-21:00,9
CHKG221131MZSQJN90,10/14/1998,Trans Female,Doe Crossing,Vernon,Stang,95000-000,496,Georas,Jurgen,Vickery,$14351.05,13:00-21:00,10
HRQN221103MVZJXK50,7/16/1996,Cis Female,Killdeer,Alpine,Rigney,,862,Ben,Dregan,Coast,$20252.88,9:00-17:00,9
NJXW021103HYNZER62,12/23/1999,Intersex,Lillian,Del Sol,Russell,,913,Roderich,Askaw,Cridlan,$24968.33,13:00-21:00,10
IVHW521231MYNFWK73,6/2/1986,Cis Man,Knutson,Dayton,Morrow,413242,599,Nathan,Inglesent,Penhalewick,$28850.54,13:00-21:00,9
ZDFW221110HZSPUY66,2/14/1985,FTM,Bartillon,Homewood,Basil,0873,133,Lee,Burkett,Waldera,$16599.79,13:00-21:00,10
TISL820931MZSMTW44,5/21/1972,Cisgender Man,4th,Fieldstone,Haas,51000,436,Mayor,Petranek,Boltwood,$29520.18,13:00-21:00,8
QZSF721111MTCROP54,7/11/1985,Transgender Female,Granby,Ridgeway,Anhalt,,083,Vlad,McKintosh,Pickwell,$16122.48,12:00-20:00,8
YQRA621231HVZWYO30,6/21/2000,Cis,Glendale,Bonner,Sommers,35059 CEDEX,289,Jere,Eddisford,Slane,$19454.15,13:00-21:00,9
UXBA120418MVZADX53,3/27/1972,Androgyne,Division,Oxford,Eliot,49901,443,Trumaine,Adelman,Wickson,$12671.68,11:00-19:00,9
UEFQ121230HYNARX80,1/11/1992,Transfeminine,Westridge,Morning,Dixon,11905,294,Leonhard,Martinovsky,Confait,$12905.44,13:00-21:00,10
KRPC620130HYNNHL15,12/11/1988,Transfeminine,Fair Oaks,Westport,Waxwing,97341 CEDEX,752,Blane,Bartalin,Houten,$22243.80,12:00-20:00,6
MWTE221211HZSPSW83,9/11/1983,Transsexual,Sugar,South,Reinke,,880,Cristian,Tutchings,Pelman,$26556.82,13:00-21:00,9
XDCH021131HVZCJH43,3/2/1995,Cisgender Male,Waubesa,Melby,Sullivan,3200,192,Theodor,Dorward,Radborn,$28350.62,12:00-20:00,7
ZIYT421231HZSJSZ95,6/16/1989,Androgynous,Summit,Forest Dale,Caliangt,,364,Pacorro,Borgesio,Emmanuel,$10249.91,12:00-20:00,10
WXNI820831MZSFKV35,9/17/1982,MTF,Reindahl,Waxwing,Sage,,109,Mill,Ivan,Fulton,$21195.28,12:00-20:00,10
NJWQ121201HZSAUO85,11/3/1975,Transgender,Sycamore,Stone Corner,Lake View,88-220,349,Isidoro,Haskew,Swigg,$23495.35,13:00-21:00,9
QDCJ921214HYNZOG53,7/11/1997,Trans Female,Raven,Thierer,Ronald Regan,,914,Mort,Gellibrand,Milburne,$27230.19,11:00-19:00,9
GFMB121131HVZPJF54,9/25/1999,Transgender Man,Monica,Granby,Crest Line,,756,Andre,Vasilkov,Cardoso,$17344.89,10:00-18:00,7
YPIL921030HZSGPA04,5/24/1993,Transfeminine,Service,Vidon,Buhler,,129,Reid,Sherar,Axby,$28153.39,13:00-21:00,10
ORWE021231MYNLKZ41,3/16/1994,Gender Questioning,New Castle,Walton,Esch,4110,679,Neal,Hakonsen,Fibbings,$16784.58,13:00-21:00,9
ZGFA921231MTSLRM71,4/18/1983,Transgender Male,Cherokee,Autumn Leaf,Roth,,611,Dwight,Maps,Pattisson,$12766.35,12:00-20:00,10
UACW321230MYNTFR99,1/29/1995,Other,Briar Crest,Eagan,Kinsman,,896,Gordon,Ing,Lyste,$10212.59,12:00-20:00,10
KOWZ020931MTCSKF57,8/9/1993,Transmasculine,Talisman,Arrowood,Hanson,55446,225,Buddy,Bartozzi,Bussetti,$14428.88,13:00-21:00,10
NQJW821117HVZAGU14,4/6/1977,Transgender,Ruskin,Sachs,Jenna,,280,Sancho,Seegar,McFfaden,$11668.88,12:00-20:00,10
NYBU221230MYNHYN45,9/29/1972,Non-binary,Moland,Duke,Rusk,,991,Niki,Winfindine,Wemm,$18885.19,13:00-21:00,9
QYXO021131HVZXRS18,10/5/1982,Transfeminine,Oak,Upham,Oneill,3001,643,Kort,Bardwell,Causby,$16253.27,13:00-21:00,9
YZKR521231MZSFMA11,4/28/1988,Trans,Dahle,Arrowood,Jenifer,3723,919,Christophorus,Stetson,Kohler,$21791.47,12:00-20:00,8
DMIP821116HZSSTD56,10/2/1984,Two-Spirit,Moose,Reindahl,Pepper Wood,,081,Lucian,Elcock,Willoughley,$23971.91,12:00-20:00,6
GZDU321231HZSZOD88,2/23/1983,Gender Nonconforming,Goodland,Bluestem,Cambridge,87-880,282,Vanya,Vasilechko,Whiskin,$15264.30,13:00-21:00,10
DXRN721209MYNYEC54,5/20/1978,Cisgender Man,Hovde,Shasta,Hooker,13330-000,834,Garry,Iacovides,Chiplen,$14174.97,13:00-21:00,8
MJKN520331MSLPJS52,10/15/1999,Trans Man,Oak,Sherman,Namekagon,921-8804,413,Thane,Kehir,Antonsson,$15102.29,13:00-21:00,9
GCLU321231MVZCDA07,6/5/1995,Cisgender Male,Rowland,Sherman,Farwell,79600-000,046,Herbert,Catterick,Bardnam,$25273.76,13:00-21:00,10
OKSE821231HZSCXA40,8/16/1984,Other,Helena,Ilene,Stoughton,,176,Huntley,Dillestone,Cianelli,$26565.59,12:00-20:00,10
LSCD021115MZSYOR46,5/22/1972,MTF,Harper,Texas,Hanover,238450,738,Ennis,Annis,Stuffins,$21846.15,12:00-20:00,9
TAOI821231MYNPOU42,11/1/1973,Gender Variant,Manufacturers,Spohn,Walton,15800-000,551,Vasili,Brownlie,Brasner,$15221.67,12:00-20:00,9
TYKI021130HYNGAI79,11/3/1990,Transmasculine,Anhalt,Petterle,Schiller,29551 CEDEX 9,329,Lazaro,Draude,Allsupp,$15765.50,13:00-21:00,10
WGLU721019MYNMWP04,11/28/1977,Trans Male,Straubel,Dorton,Eggendart,V31,062,Sebastiano,Coldwell,Sheards,$10727.45,10:00-18:00,10
WZIQ221002MYNLNH10,4/1/1985,Androgyne,Hoffman,Doe Crossing,Ridgeview,,143,Mendy,Sullivan,Pandie,$21492.52,10:00-18:00,6
EHMX020631MYNDBA10,1/10/1972,Gender Variant,Loftsgordon,Surrey,Fulton,,677,Hurley,Urion,Glowacha,$17020.31,13:00-21:00,10
CJAK821130MYNGAY58,4/24/1971,Androgynous,Coleman,Laurel,Merchant,13269 CEDEX 08,874,Errol,McFater,Kopec,$24037.86,12:00-20:00,10
LGJV021209MZSAQN68,7/11/1982,Trans Male,Melody,Rieder,Loftsgordon,3830-455,053,Dimitry,Hodinton,Kliemke,$17430.00,13:00-21:00,10
BLEN820412HVZMNF75,6/30/1992,Trans Male,Brown,Loeprich,Sachtjen,,909,Cal,Fearn,Gaynsford,$20671.49,13:00-21:00,8
JTHA821231HYNRJI84,5/12/1974,Cis Man,Continental,Dennis,Monica,26340,854,Urson,Scimonelli,Dedenham,$20399.10,13:00-21:00,10
WHST521230HVZYGH55,12/18/1984,Cis,Carey,Autumn Leaf,Summerview,,831,Vlad,O'Shevlan,Gauntlett,$13797.29,13:00-21:00,7
DTZE921231MZSFAC30,8/28/2000,Transsexual Man,Union,Petterle,Jay,22004,737,Jarib,Marti,Dominelli,$22089.15,13:00-21:00,8
OLNM321230HZSISH71,3/1/1989,Bigender,Banding,Melby,Burning Wood,4417,797,Mickie,Werrett,Higgonet,$11411.55,12:00-20:00,10
BKPZ821231MZSWOZ18,4/30/1998,Transfeminine,Towne,Merchant,Michigan,181 36,322,Hastings,Skeel,Stefi,$25619.75,12:00-20:00,10
NWXD521210MZSGSK00,7/5/1974,Transgender Woman,Haas,Hazelcrest,Aberg,,133,Ransom,Foldes,McMechan,$26105.67,13:00-21:00,9
FUJD821200HTSWNM00,8/20/1988,Androgynous,Sachs,Buhler,Moulton,,838,Giff,Learman,Evreux,$17693.45,9:00-17:00,10
ZJXP620430HZSHVJ56,4/19/1993,Male to Female,Twin Pines,Miller,Warrior,,253,Thatcher,Tumility,Braithwaite,$17615.75,13:00-21:00,10
NTPR521131HZSDLV22,3/7/1977,Neutrois,Shopko,Twin Pines,Boyd,33982,544,Cyril,Counsell,Silson,$21061.28,13:00-21:00,6
TWPE621217HZSZFI33,8/13/1999,Transgender Female,International,Lyons,Lake View,4609,965,Clark,Trusler,Oret,$15236.95,12:00-20:00,10
CXLS821031MZSLTU22,10/19/1975,FTM,Michigan,Waubesa,Forest Dale,,591,Case,Klousner,Tevelov,$11665.73,13:00-21:00,9
QYDC221230HZSWNY50,6/16/1975,Gender Variant,Eggendart,Delaware,Farmco,36-220,023,Earvin,Freake,Eyckelbeck,$18823.30,13:00-21:00,9
QZFC121130MZSZOS00,3/10/1971,Cis,Stoughton,Mesta,Vernon,,538,Tommie,Eglinton,Beggio,$24828.06,11:00-19:00,9
USNC021231HTCEJW24,7/18/1984,Gender Fluid,Graedel,Fordem,Reindahl,,265,Hasty,St. Queintain,Llewelyn,$26187.83,13:00-21:00,8
NHXK221231HZSKGL75,1/24/1990,Cis Female,Graedel,Lukken,Riverside,,717,Forest,Krystek,Kerne,$11467.78,12:00-20:00,10
GQWE321101HZSCOY66,8/26/1982,Trans,Pankratz,Troy,Valley Edge,,234,Karlan,Thoumasson,Butten,$17098.55,12:00-20:00,9
BDSJ621031HZSJQK80,7/24/1989,Transmasculine,Monica,Pawling,Graceland,3010,788,Keene,Yurivtsev,Dymott,$10320.86,11:00-19:00,10
TDBF921104MZSQGA86,3/30/1991,Intersex,Gale,Graceland,Bunker Hill,8418,925,Thaine,Dacres,de Castelain,$23888.75,11:00-19:00,7
YCMS521230MZSKAX76,6/23/1970,Neutrois,Pleasure,Farragut,Prairie Rose,,607,Franzen,Slidders,Insoll,$25280.62,13:00-21:00,9
QNYF121204HZSIMA49,2/2/1993,Transmasculine,Bluestem,Hauk,Sunbrook,,596,Charlie,Leyshon,Fraczek,$28327.60,11:00-19:00,10
GSCA520131MYNMFY31,5/1/1995,Transmasculine,Holy Cross,Oak,Bunting,311-4317,901,Hobart,Venners,Payton,$22095.43,12:00-20:00,10
BFWH121208MZSPVF12,5/28/1970,Cis Male,Hallows,Fallview,Truax,,968,Web,Sacks,Hefford,$14435.34,13:00-21:00,9
OWXE721230HYNDWG65,9/14/1991,Trans Woman,Spohn,Grim,High Crossing,8611,205,Justus,Broker,Romeo,$10504.53,13:00-21:00,6
ZQUE621231HYNBEJ37,9/5/2000,Gender Variant,Prentice,Memorial,Burrows,35150,921,Sigismond,Kenlin,Cornbell,$15876.11,12:00-20:00,9
BZQA221009HYNJQZ71,8/12/1997,Genderqueer,Myrtle,Stone Corner,Golf,,889,Den,Vell,Neighbour,$14435.15,11:00-19:00,9
ZTEK121231MZSBCV52,10/30/1975,Cis Female,Thackeray,Cardinal,Heffernan,,003,Lowe,Pietruszewicz,Fessions,$18160.56,7:00-15:00,10
GWNE821230MZSIHF63,3/28/1974,Agender,Lillian,Transport,Summerview,,261,Homere,Grut,Hemstead,$16457.62,13:00-21:00,8
UTBK921231HZSJWF14,5/12/1988,Gender Questioning,Bartelt,Oxford,Ludington,7031,116,Hunfredo,Stratz,Gethins,$10671.42,13:00-21:00,10
SLFG421210HZSJIV97,11/26/1992,Transsexual Person,Service,Havey,Thierer,,421,Daryle,Farleigh,McDonogh,$28875.42,13:00-21:00,9
XUDS321030HZSIED09,3/25/1998,Cis Woman,Golf Course,Declaration,Arkansas,8693,774,Nickola,Sone,Randales,$23779.76,12:00-20:00,10
ZMAG021230HVZBNY67,12/1/1974,Cis Man,Center,Beilfuss,Clyde Gallagher,,257,Zacharias,Brusby,Clift,$12300.31,12:00-20:00,10
DYHJ421130MVZVIN78,6/23/1978,Trans Female,Ilene,Hansons,Mariners Cove,,617,Man,Fawcitt,Brolechan,$10655.50,13:00-21:00,10
NUYM821231HZSBMZ50,5/7/1974,Cisgender Man,Towne,Iowa,Waubesa,,822,Pacorro,Hinckley,Servant,$29078.21,11:00-19:00,7
MPWG221109HZSVGY40,8/6/1999,Gender Fluid,Dakota,Norway Maple,4th,,547,Roddie,Lewton,Parell,$27786.56,11:00-19:00,10
WFUK221231HYNCSM25,12/7/1999,Transsexual Man,Rusk,Meadow Vale,American,,092,Brendon,Cherrison,Eastlake,$11499.75,13:00-21:00,6
DPOQ121107MVZTAU60,10/12/1987,Cis Man,Hermina,Porter,Eliot,,067,Sylas,Dewicke,Chate,$12798.01,12:00-20:00,7
MIPZ721130MZSSEK83,12/17/1970,Transfeminine,Mosinee,Magdeline,Victoria,,064,Donnie,O'Currine,Leeves,$25840.08,13:00-21:00,8
HUQW121130MYNXWK01,2/17/1988,Cisgender Female,Charing Cross,Milwaukee,Garrison,87390-000,034,Shaun,Canham,Skocroft,$18972.34,12:00-20:00,8
RCFV121231HYNKPT27,5/14/1989,Agender,Gina,Waubesa,Daystar,,439,Timoteo,MacAllester,Trussell,$23289.10,10:00-18:00,9
ZUTQ920831MVZSBD99,4/21/1991,Trans Person,Ilene,Montana,Hagan,21030 CEDEX,739,Arvy,Biggar,Goldhawk,$21272.33,13:00-21:00,9
GFSH521031MTSKWO01,12/3/1976,Gender Nonconforming,Manitowish,Sutherland,Lakewood,2430-186,478,Tore,Batchelor,Wyson,$20626.01,13:00-21:00,9
TSFD721131HZSKWN94,4/5/1995,Male to Female,Forest Run,Boyd,Carberry,288 02,017,Earvin,Hogbin,Mattack,$22785.33,13:00-21:00,10
GWSZ621131HYNXTQ15,4/19/1970,Gender Variant,Reindahl,Fairview,Sunnyside,407 47,163,Patton,Galbraeth,Duncanson,$26199.47,13:00-21:00,7
KQFS921018HYNQWY12,6/9/1991,Cisgender Man,Farwell,Brentwood,Starling,88778,000,Xever,Kilgrew,Skipping,$20438.88,10:00-18:00,8
EWOS821231HZSXIW09,9/3/1984,Genderqueer,Morningstar,Melody,Kenwood,,335,Titus,Gozard,Allright,$27612.63,13:00-21:00,10
FBLP521131HZSGFC94,12/7/1986,FTM,Cordelia,Carey,3rd,32255,329,Thorn,Delmonti,Bleythin,$23698.63,13:00-21:00,10
IXWZ621131HZSFBX34,9/29/1996,Non-binary,John Wall,Becker,Elgar,,649,Roth,Mansford,Ganing,$20967.83,13:00-21:00,10
YHPO920231MVZLGN96,6/8/1981,Cisgender Man,Superior,Straubel,Troy,,114,Cornelius,Font,Morteo,$24955.25,11:00-19:00,10
MEKN621230MYNHOC82,11/1/1990,Two-Spirit,Fieldstone,Dexter,Bashford,5514,509,Hamlen,Christene,Preuvost,$14203.48,12:00-20:00,10
GIWQ421130MZSYXJ87,7/30/1995,MTF,Sachs,Moland,Karstens,,441,Terrel,Yashaev,Martschke,$16561.49,13:00-21:00,9
VNYF721230HYNXBK56,8/29/1977,Gender Fluid,Lillian,Vidon,Pearson,34-234,587,Harwell,Walewicz,Mardee,$19414.86,13:00-21:00,8
BLJC621131HYNUPD43,1/8/1988,Transmasculine,Banding,Northport,Prairieview,436 23,421,Hernando,Bentsen,McAmish,$25553.85,12:00-20:00,10
GEVC421231MTSPHU65,11/7/1996,MTF,Bellgrove,Prairie Rose,Waxwing,,729,Seamus,Walliker,Marcum,$29088.52,13:00-21:00,9
DKEF621131HZSVTW73,6/24/1974,Trans,Homewood,Manitowish,Dryden,,427,Philip,Brockett,Engelbrecht,$12797.25,13:00-21:00,10
EYQZ621231HZSTJC49,3/14/1990,Transgender Person,Dunning,Village Green,Debra,606525,601,Pace,Keach,Gullis,$23644.45,13:00-21:00,10
AVFX120131MYNFWD52,9/11/1984,Trans Person,Mifflin,Lillian,Upham,21-007,862,Willem,Langtry,Benfell,$21617.13,13:00-21:00,9
TNFU921106MZSTSQ21,2/27/1973,Transsexual Male,Eliot,Westridge,Atwood,2437,651,Kelley,Burker,McCarrick,$11694.08,13:00-21:00,9
IKCY721130HZSEKZ39,9/14/1986,Transsexual Male,Aberg,Morning,Holy Cross,588 45,051,Sheppard,Webster,Pruvost,$29803.19,8:00-16:00,10
ANBH221231HZSFUL04,10/17/1985,Trans Woman,Spohn,Washington,Golf Course,,047,Torre,Stritton,Duggen,$25662.45,13:00-21:00,10
YCMO921030HZSSZA69,6/3/1999,Agender,Melrose,Stang,6th,,393,Son,Tether,Sone,$12331.03,13:00-21:00,10
ARPV521214MVZFSO26,7/4/1991,Transsexual,Vidon,Heath,Sunbrook,,579,Mateo,Baus,Yesinin,$28386.38,12:00-20:00,10
KJFB021231MYNPJG01,12/17/1993,Transsexual,Evergreen,Vahlen,Kensington,,127,Archer,Burgin,Banbrook,$15220.48,13:00-21:00,10
TRVY721231HYNWOV90,11/8/1991,Trans Female,Bashford,Waubesa,Utah,,640,Brockie,Sarah,Davern,$17012.63,13:00-21:00,10
YQHR521231MYNIUD53,11/11/1998,Transgender Female,Scofield,Spenser,Rieder,,019,Skell,Wolfarth,Schreurs,$18424.93,13:00-21:00,8
HZDL621231MYNYFG71,5/29/1998,Transsexual Man,Kensington,Dayton,Sunfield,,217,Wyn,Vyvyan,Jelks,$16311.82,12:00-20:00,10
VCOL020131HZSUEX98,10/8/1994,Neither,Northridge,Barby,Merry,,192,Jarred,Paton,Ockendon,$24257.16,11:00-19:00,10
WVRQ921230HYNEQD06,10/16/1976,Androgyne,Pennsylvania,Sycamore,Rusk,574-0072,761,Vlad,McElree,Kingcott,$28456.46,10:00-18:00,9
HYFZ321230HTSSYQ70,11/10/1975,Neither,Surrey,Sycamore,Lindbergh,38530-000,888,Anders,Micklem,Pimmocke,$27670.02,13:00-21:00,7
VPJC521019HTSHLK66,10/15/1973,Trans Female,Homewood,Division,Ohio,35500-000,602,Antonio,Walbrun,Espina,$11903.07,12:00-20:00,9
FMXS821231HYNITO79,11/20/1992,Intersex,Judy,Clarendon,Barnett,59320,159,Parrnell,Novill,Sherston,$21507.23,13:00-21:00,8
IWEM421218MYNNHJ69,8/15/1991,Gender Variant,Schiller,Delaware,Thierer,,850,Huey,Pignon,Magrannell,$10644.82,13:00-21:00,6
AGCY021231MTSKOJ76,3/25/1973,Non-binary,Northland,Forster,Farmco,1152,970,Arnie,Vale,Graeser,$20126.51,7:00-15:00,10
LUYN320331HYNZCA24,7/31/1991,Transsexual Man,Southridge,Esch,Bartillon,36177,038,Shellysheldon,Appleton,Maycock,$14065.75,13:00-21:00,10
XDGV821201HYNAJH96,5/2/1988,FTM,Manitowish,Moland,Arapahoe,,126,Rolf,Duiged,Myrie,$15556.97,11:00-19:00,8
XDTY021215HYNONQ76,9/12/1988,Transsexual Woman,Cardinal,North,Cottonwood,25204 CEDEX,242,Jermain,Hulles,Benezeit,$11602.62,12:00-20:00,9
FZJO320731HYNRFT60,7/22/1992,Transgender Male,Union,Carey,Laurel,,941,Thedrick,MacCoveney,Cunningham,$11817.92,13:00-21:00,10
IWJV621113MZSWLS27,12/23/2000,Cisgender Female,Sherman,Doe Crossing,Luster,17017,123,Ludvig,Walesa,Fenemore,$14633.63,12:00-20:00,9
WQEB421131HZSWMR23,11/6/1973,Cis,Del Sol,Stone Corner,Schiller,79240-000,818,Nathanil,Windle,Doxsey,$24537.93,12:00-20:00,9
PSLA421231MYNNCG78,5/5/1995,Trans Man,Granby,Anzinger,Raven,13907 CEDEX 20,392,Garner,Luck,Mullinder,$15317.99,13:00-21:00,10
KSGP821231MZSMSF78,2/10/1982,Transsexual Female,5th,Elgar,Northport,6517,548,Jorgan,Dumberell,Szubert,$17364.51,13:00-21:00,9
FXAC020531MTSMZG27,11/28/1984,Cisgender Man,Washington,Hudson,Mifflin,,209,Allyn,Pountain,Nayer,$13595.29,13:00-21:00,8
KSDW920203MZSGKR62,1/31/1999,Genderqueer,Cardinal,Stone Corner,Hintze,,585,Gilberto,Cosyns,Rendbaek,$18999.50,10:00-18:00,10
TQZN121230MYNOMU42,12/23/1991,Trans Man,Mcguire,Upham,Crest Line,,926,Ferris,Chadwen,Jickells,$10461.22,13:00-21:00,10
QCKD021230MZSFDR75,5/28/1991,Agender,Crest Line,Coleman,Kensington,,520,Peirce,Covolini,Buckwell,$28997.60,13:00-21:00,9
QAIW521230HYNDRY31,2/26/1990,Two-Spirit,Kim,Westport,Jana,47800-000,975,Ram,Arthars,Novotne,$26933.76,12:00-20:00,10
GJAC420731HTCLKR67,5/29/1972,Transgender,Lerdahl,Utah,Kennedy,,241,Adrian,Grout,Clurow,$18319.09,13:00-21:00,9
SAGY321231MYNPFN73,12/10/1978,Transgender Female,Raven,2nd,Reinke,,399,Skipper,Bolderson,Krop,$11952.15,10:00-18:00,9
HSRG321230MYNPLA72,4/30/1972,Cisgender Female,Warner,Heath,Elgar,4960-320,698,Benedikt,Poulgreen,Matysiak,$18722.07,13:00-21:00,9
PDTK221231HYNDZA19,5/30/1995,Transsexual Man,South,Warner,Northwestern,90030,753,Dick,Chaffer,Zanre,$19134.03,13:00-21:00,10
RTPH921031HZSWRT91,11/18/1983,Trans,Dexter,Armistice,Fuller,,120,Zeb,Ucceli,Duberry,$17492.34,13:00-21:00,10
FDQO121131HZSSUZ92,5/18/1982,Trans Man,Kedzie,Montana,Shopko,5850,914,Llewellyn,Dikes,Grahlmans,$13782.97,11:00-19:00,10
VAJO221130MZSBAX72,11/23/1998,Neither,Carioca,Maryland,Golf Course,904-2311,500,Elsworth,Nolton,Giraudat,$19282.66,12:00-20:00,6
GWAS021231MZSCBA95,6/21/1995,Transsexual Person,Knutson,Thackeray,Pleasure,,508,Claudell,Peye,Creasey,$28264.41,10:00-18:00,9
KELS421131MZSENG62,1/17/1999,Cisgender Male,Roxbury,Comanche,Lighthouse Bay,,831,Poul,Follett,Siggins,$26261.33,13:00-21:00,9
XRWF521231HZSORF83,11/13/1977,Female to Male,Brown,Onsgard,Eggendart,,224,Penny,Vaudre,Flewin,$29115.02,13:00-21:00,10
ECDV121230HZSOQK09,8/9/1977,Agender,Carberry,Carioca,Saint Paul,,480,Judd,Hamsson,Kubu,$19448.74,11:00-19:00,10
IXYV421131HZSKZL80,9/24/1978,Trans Woman,Killdeer,Quincy,Mallory,,500,Onfre,Burchard,Abramowsky,$19678.62,12:00-20:00,9
MQGD021131MVZYBR66,9/1/1979,Cis Woman,Shopko,East,Morningstar,501 78,579,Stevy,Braams,Ivatt,$21507.87,11:00-19:00,9
NAYV221230HZSMPS75,6/8/1971,Transmasculine,Green Ridge,Brentwood,Commercial,,695,Kristofor,Brunsden,Sarjent,$29654.15,10:00-18:00,9
YVEK121231MYNVCZ48,1/14/1997,MTF,Memorial,Northland,Erie,,564,Clim,Robbel,Happer,$24883.06,13:00-21:00,8
IXAF621231MZSFPJ29,2/21/1998,Other,Mayer,Sutteridge,Bartillon,,578,Chadwick,Dressel,McGraith,$11528.02,9:00-17:00,10
YTNG521230MZSLZX14,7/16/1995,Gender Variant,Haas,Calypso,Annamark,20709,736,Hale,Di Roberto,Kingzett,$14432.92,10:00-18:00,10
EKLO521230MVZHOE27,2/1/1990,Transsexual Female,Beilfuss,Surrey,Anhalt,106 42,367,Johnnie,Connochie,Furst,$23526.66,13:00-21:00,10
ACIT421230MZSWUB72,8/13/1992,Cisgender,Vahlen,Fulton,Riverside,77120,968,Miltie,Riddington,Maylott,$26108.07,13:00-21:00,9
PLRW821031HYNULN00,7/16/1973,Cisgender Man,Farwell,Mayer,Linden,5606,638,Sherlocke,Mendel,Theze,$24240.72,13:00-21:00,9
WJAL821231HYNLEX41,5/24/1974,Transgender Female,Luster,Carberry,Florence,,190,Sherm,Flageul,Chasson,$24774.07,13:00-21:00,10
MFRW321212MYNLES30,4/3/1987,Neutrois,Vahlen,Crescent Oaks,Grim,549 06,728,Kennedy,Pitson,Korejs,$20066.21,10:00-18:00,8
WAFY021030MZSVMX59,7/14/1989,Cisgender Man,Amoth,Sage,Iowa,5207,966,Rufe,Bolmann,Lawn,$20082.55,13:00-21:00,10
JANC421112HYNZHD66,10/6/1970,Two-Spirit,Mitchell,Ridge Oak,Sheridan,,832,Kingston,Cumine,Ceccoli,$23161.40,13:00-21:00,8
ACKW821031HYNDRT46,8/14/1976,Trans,Brickson Park,Cherokee,Maryland,,000,Boris,Clementson,Abraham,$27810.18,13:00-21:00,10
AKVO521217HZSGVD27,11/17/1980,Cis Woman,Elmside,Elka,Parkside,,834,Dillon,Mungane,Culter,$20761.85,12:00-20:00,10
RODU621207HYNYHM07,5/18/1978,Cisgender Woman,Russell,4th,Dorton,33-395,964,Sandor,Gainforth,Saward,$24734.19,13:00-21:00,10
JKZC221001HYNBLD66,10/24/1998,Cisgender Male,Waubesa,Sage,Anhalt,,641,Saunders,Rainsbury,Freeborn,$10100.77,13:00-21:00,10
ZMSH921130MYNFHM78,5/4/1994,Trans Female,Scofield,Cottonwood,Waywood,,976,Hoebart,Geary,Thome,$19528.82,13:00-21:00,9
QHWG821231MZSCVH32,5/31/1998,Intersex,Moulton,Morning,Service,40068,532,Garrick,Skitral,Mabone,$28814.66,12:00-20:00,9
UMHL221207HVZMEZ01,10/24/1973,Trans,Vahlen,Basil,Michigan,5606,923,Lorry,Harriagn,Tupie,$29598.39,13:00-21:00,10
SUDT221105HZSEMY57,2/27/1980,Trans,Jenna,Westport,Delaware,,705,Shelden,Irwin,Rymer,$23815.11,13:00-21:00,9
EQYX621205MVZGVH55,7/22/1971,Transfeminine,Kings,Sloan,Johnson,,502,Desmund,Gurwood,Jagson,$26003.15,13:00-21:00,9
VQCY221131HZSJIZ56,6/17/1997,Cis,Lotheville,Anhalt,Delaware,10112,414,Levey,Pakes,Mildenhall,$28273.59,13:00-21:00,7
SJCF621231MZSELS82,3/2/1973,Other,Arapahoe,Hooker,Granby,,669,Basile,Terrington,Gantzman,$17765.45,12:00-20:00,10
AHYF121206HYNQST52,1/7/1997,Transsexual,Bellgrove,Talisman,Mockingbird,,203,Scott,Dewberry,Luxmoore,$18420.41,11:00-19:00,10
CMZI921231HZSWZC30,6/17/1993,Androgynous,Rowland,Stephen,Kedzie,AD600,069,Fairfax,Shanley,Stollenhof,$17232.06,11:00-19:00,10
ITBM621214HZSJFR35,3/17/1987,Transgender Person,Marcy,Randy,Delladonna,36955-000,440,Fraser,Tolcharde,Larkworthy,$19866.34,10:00-18:00,10
JGFQ621231HYNNXA12,11/26/1997,Transsexual Man,Gina,Pepper Wood,Surrey,747 66,747,Thorpe,Foresight,Cackett,$21526.70,13:00-21:00,9
JIAK821230HZSNPO88,8/7/1996,Trans Man,Hanson,Weeping Birch,Thompson,625520,559,Marlin,Dawby,Clynter,$25301.67,12:00-20:00,9
UEFO321231HZSIST16,11/28/1970,Pangender,Darwin,Toban,Oakridge,35257,515,Davin,Dulinty,Puddephatt,$27758.16,12:00-20:00,10
QAIO221231HYNCWA63,10/28/1975,Transgender Male,Village Green,Clyde Gallagher,Troy,4004,756,Wolf,Moreland,Renac,$23534.16,13:00-21:00,10
JALY520731HVZDVQ87,5/10/1977,FTM,8th,Redwing,Mcguire,182 74,690,Isadore,Ventam,Burgen,$28443.10,13:00-21:00,7
BATK321203MZSWMA16,9/6/1973,MTF,Meadow Valley,Eastlawn,Spaight,,575,Gard,Cowderay,Moxon,$16178.26,13:00-21:00,10
IJBA221212MYNECA97,4/27/1984,Transgender Man,Crescent Oaks,Hansons,Melrose,,631,Raimondo,Cantwell,Winton,$11907.85,13:00-21:00,10
OSLV521215HTSNWC13,2/27/1981,Gender Fluid,Chinook,Buhler,Eggendart,,952,Saxe,Griss,MacAllester,$15787.89,13:00-21:00,10
THZD921231HVZPHW19,11/3/1971,Cis,Main,Everett,Pine View,,609,Claybourne,Lovelace,Arondel,$10206.01,13:00-21:00,9
EABH721117HZSSEN16,9/4/1973,Pangender,Melvin,Merchant,La Follette,72130,394,Jereme,MacDuffie,Mintrim,$12603.69,13:00-21:00,10
XUBA021231HTSMUD89,9/3/1981,Cisgender Woman,Kings,Sage,Hauk,35930-000,661,Richard,Siret,Airy,$19868.87,13:00-21:00,8
CBQF921211HZSGZC79,5/4/1982,Genderqueer,Ramsey,Lukken,Donald,,853,Tracey,Dron,Demetr,$17790.89,13:00-21:00,10
RYHP121130HZSKWF91,3/30/1972,Transgender Person,Maple,Laurel,Londonderry,,603,Efren,O'Carmody,Levy,$16808.96,13:00-21:00,10
IONF421231HZSCAJ53,8/23/1971,Transgender,Sage,Dixon,Karstens,,236,Raymond,Genicke,Peris,$20661.19,13:00-21:00,10
GVWJ121231HYNADY97,12/17/1995,Trans Man,Fulton,American,Glendale,,233,Benedicto,Strick,Beedon,$28978.43,7:00-15:00,10
FHJN021109HZSEGH68,10/1/1998,Trans Male,Jana,Thackeray,Straubel,,492,Bobbie,Stickel,Billings,$13598.17,12:00-20:00,10
YCRB621131HYNAWC64,1/28/1988,Gender Variant,Northfield,Schlimgen,Colorado,1430,072,Odey,Born,Bunting,$16381.64,13:00-21:00,10
KNTO221201HZSSVN93,11/12/1999,Androgyne,Old Shore,Moland,Lakewood Gardens,1876,642,Mendie,Suarez,Rothwell,$11465.36,13:00-21:00,10
QHBI821231HTCJSG75,5/18/1985,Trans Person,Sunbrook,Meadow Ridge,Morningstar,41190,760,Lew,Costan,Garraway,$15717.89,13:00-21:00,10
OJAY320130HYNQKX09,11/16/1977,Gender Variant,Claremont,Oakridge,Gulseth,20784,068,Silvain,Franca,Hutton,$16283.45,13:00-21:00,9
YGPE121231HVZVXE80,11/9/1979,Trans Man,Scoville,Mccormick,Reindahl,,330,Boigie,Gaitone,Flexman,$13836.64,13:00-21:00,8
JPDR821231MZSXNA30,7/23/1997,Cis Female,Bartillon,Banding,6th,11920-000,632,Sergei,O'Luney,Pecha,$23075.65,13:00-21:00,10
BSPT521131HYNLKO82,8/10/1986,Two-Spirit,Russell,Dixon,Hansons,L1M,398,Virge,Dwerryhouse,Cashell,$15675.86,13:00-21:00,10
RECS121231HYNJWA55,11/3/1995,Transsexual,Almo,1st,Corscot,393917,365,Cello,Mullins,Sandels,$14403.08,11:00-19:00,8
PSGD220531HZSJID49,7/23/1973,Transsexual Person,Northwestern,Holmberg,Barby,38-713,211,Jay,Mouton,Murrish,$15232.26,13:00-21:00,9
VWXU721003MVZLGK25,5/30/1983,Transsexual Male,Scott,Becker,American,76086 CEDEX,992,Bendix,Benediktovich,Schubart,$21383.96,11:00-19:00,8
MXJK221130HZSRZJ42,7/16/2000,Trans Man,Corben,Holmberg,Scoville,,218,Hersch,Galler,Okell,$29743.75,12:00-20:00,7
FHCV921231MZSOIC15,5/29/1990,Cis Male,Blackbird,Del Mar,Stoughton,,387,Vale,Hearnah,Streets,$17420.20,10:00-18:00,6
YFEZ721230MVZGED05,9/13/1979,Male to Female,Crest Line,Hintze,Longview,M4C,924,Ulrick,Toffoletto,Kelleway,$19896.20,13:00-21:00,10
DCEG021130MZSDUM31,8/19/1998,MTF,Mariners Cove,Johnson,Dexter,,689,Clevey,Rosenzveig,Gebhardt,$17948.06,12:00-20:00,8
AHBO021131MVZIMH04,7/31/1974,Trans Man,Merrick,Farmco,Hanover,,644,Mason,Hanbidge,Lowrey,$28747.41,13:00-21:00,10
MBPL621031HTCIXJ55,1/22/2000,Trans Male,Westport,Maple Wood,Grayhawk,25110,918,Karlens,Gonzalo,Horribine,$18112.43,12:00-20:00,10
XQAU720115HVZLXK15,4/2/1984,Trans Woman,Derek,Dorton,Northridge,40000,654,Garth,Pillington,Carnall,$21698.75,12:00-20:00,9
AXFV521231MZSZFW59,8/26/1990,Two-Spirit,Haas,Crownhardt,Homewood,8214,938,Terrell,Chilley,Innerstone,$18107.11,13:00-21:00,9
VHYU521230MVZXYH96,9/16/1986,Cis Female,Northview,Talisman,Darwin,4751,301,Lion,Mileham,Brunton,$12172.91,12:00-20:00,9
WMNU621030MZSBZK98,3/3/1988,Cisgender Female,Main,Nobel,Warrior,38400-000,645,Bobby,Dulanty,Jefferd,$20830.02,11:00-19:00,7
JPUM221131MVZLTB43,3/23/1998,Other,Jana,Morrow,Laurel,,447,Hamlen,Swatradge,Notton,$10177.22,13:00-21:00,9
CMYJ821216HYNPKD06,10/29/1982,Bigender,Transport,John Wall,Duke,2714,320,Chadd,Gonthier,Stabbins,$18022.77,10:00-18:00,9
ZDOF521231MTCHCX75,5/4/1984,Trans Person,Fisk,Farragut,Union,,687,Clerkclaude,Loadsman,Siseland,$14819.59,13:00-21:00,8
LMBU521031MZSGBH59,3/1/1978,Female to Male,Boyd,Dawn,Meadow Valley,,082,Chas,Houlworth,Pirie,$12489.58,12:00-20:00,10
EMJB420431HYNKEL48,7/12/1987,Cisgender Woman,Sommers,Shasta,Roth,J0N,788,Cyrillus,Adamovitch,Jewar,$12897.67,13:00-21:00,6
UODF321231HVZTFD41,10/9/1976,Transgender Woman,La Follette,Shelley,Fuller,,830,Forster,Paternoster,Gaitskell,$16637.34,12:00-20:00,10
CNHA021030MVZAON95,2/9/1973,Non-binary,Oriole,Hovde,Del Mar,733517,048,Erasmus,Gritten,Skillett,$12055.54,13:00-21:00,7
HDYB520431MVZAXQ25,9/10/1972,Transmasculine,Truax,Armistice,Nevada,61650,168,Ari,Kybbye,Burvill,$25584.36,13:00-21:00,9
HJQI521230HZSYCH03,7/26/1985,Male to Female,Clyde Gallagher,Warner,Swallow,,222,Ramon,Scoggins,Coveney,$22555.50,7:00-15:00,9
MBWT521215MZSFGM25,3/11/1975,Transsexual Person,Sycamore,Meadow Valley,Novick,10140,637,Gardiner,Farland,Varty,$13692.79,12:00-20:00,8
PATN021230MVZETO96,3/7/1970,Cisgender,Loomis,Sherman,Quincy,7823,060,Vincenty,Gouldstraw,Burree,$29518.61,11:00-19:00,10
MFJN920130MZSLFG54,6/15/1978,Cisgender Woman,Hallows,Steensland,Jenifer,,601,Pedro,Bartolomeo,Skaife,$13772.79,10:00-18:00,10
RIGE821230MZSXON16,10/27/1998,Non-binary,Alpine,Bartelt,Macpherson,,395,Jamal,Yanson,Archdeckne,$10999.03,11:00-19:00,9
YKBH221230HYNUNB68,5/13/1970,Non-binary,Arizona,1st,Tony,,757,Harald,Vigers,Garie,$16143.90,13:00-21:00,10
ACRJ321231MZSEMU85,1/23/1996,Transgender Male,New Castle,Corscot,Forest,,562,Todd,McCowen,Buye,$10570.08,13:00-21:00,6
WBAJ021031MZSYFP31,6/5/1988,Androgynous,La Follette,Gerald,Cottonwood,347837,603,Chancey,Gerdes,Domanek,$14258.88,11:00-19:00,10
XOFD721231MZSWFL60,9/22/1973,Trans Man,Novick,Leroy,Schmedeman,90000-000,627,Zollie,Plowright,Scales,$28619.48,13:00-21:00,8
FRSJ521231HZSNYC27,10/20/1981,Cisgender Female,Grover,Anthes,Sundown,,356,Shalom,Stobie,Dunsford,$15335.32,12:00-20:00,9
NCFE021231HTSOFH04,4/15/1993,Transgender Male,Ramsey,Daystar,Mitchell,175419,785,Dall,O'Fearguise,Du Pre,$17982.31,13:00-21:00,10
BLIM121131MZSTWZ24,4/24/1984,Two-Spirit,Carpenter,Stoughton,Dakota,,731,Alexio,Oneil,Stewart,$14348.86,13:00-21:00,9
QNMF521202HVZVHJ74,10/4/1994,Trans Person,Northridge,Oak Valley,Boyd,98670-000,715,Cristobal,Fer,Leinster,$17545.03,13:00-21:00,6
OMSI421130MZSDTL05,6/16/1985,Agender,Melody,Oriole,Everett,,495,Fred,Lermouth,McKenzie,$27310.73,13:00-21:00,10
TPIF720105HVZCNE14,1/20/1983,Transgender Person,Mallard,Paget,Reinke,1480,421,Gardener,Gudyer,Harp,$29415.06,13:00-21:00,8
CUVW221231MZSTMF48,1/22/1974,Transgender Female,Northwestern,Harper,Lukken,618383,669,Spencer,Colling,Roylance,$19469.12,13:00-21:00,8
LPSH320330HZSIDB59,10/9/1987,Androgynous,Blackbird,Blue Bill Park,Eastlawn,10500,473,Toiboid,Roubeix,Critchard,$13664.22,13:00-21:00,10
KFHM221206MVZQWB84,12/7/1995,Transgender Woman,Amoth,Londonderry,Toban,394961,864,Maxie,Lahrs,Durran,$15291.52,10:00-18:00,9
COGJ121110HZSCUD64,4/11/1971,Transgender Man,Crescent Oaks,Warner,Basil,9202,707,Rockey,Robley,Tumulty,$14020.41,13:00-21:00,10
EZCN921231MZSWOZ45,7/7/1987,Trans,Killdeer,Di Loreto,Summerview,9615,160,Tades,Antcliffe,Hammant,$17342.14,11:00-19:00,9
YVGM921231MZSGVB22,10/18/1990,Genderqueer,Alpine,Grover,Little Fleur,,777,Ced,Summerly,Humber,$22091.24,13:00-21:00,7
VAMR021231HQRHQO27,11/10/1993,Transgender,Hoard,Vernon,Fisk,,608,Auberon,Danielli,Rubinovitsch,$26561.95,13:00-21:00,10
UQLN921219HZSIKW10,7/12/1980,Gender Fluid,Green Ridge,Scofield,Dixon,1375,211,Rockie,O'Henehan,Andrey,$27018.70,11:00-19:00,8
VBYZ621231MSLECU64,3/15/1998,Transgender,Miller,Russell,Thompson,,502,Budd,Beardmore,Bootes,$16285.35,13:00-21:00,10
XABC121231HYNSZP42,12/20/1989,Pangender,Nobel,Kingsford,Manufacturers,,553,Em,Llewelly,Nisbet,$11001.87,13:00-21:00,10
SLON421130MVZVLU13,12/24/1989,Pangender,Thackeray,Mayer,Randy,523 90,175,Hillier,Foulkes,Cobelli,$10792.41,8:00-16:00,10
UBAK320931HZSVZE00,6/9/1977,Cis,Main,Bluestem,Montana,77386,645,Taddeusz,Stoves,Ollett,$15009.33,11:00-19:00,10
QXSN421231MZSOBD14,6/26/1991,Cisgender Man,Northfield,Calypso,Browning,,919,Carlo,Klagges,Reedy,$23113.20,7:00-15:00,10
XSHM621131HZSOBR38,3/2/1995,Cisgender Woman,Kropf,David,Village,439 07,753,Freddy,Hattam,Grabham,$27902.95,11:00-19:00,9
ZFKJ720431MYNKQC13,4/9/1996,FTM,Arrowood,Washington,Maywood,664 08,540,Arty,Davidovitz,Polycote,$12951.57,12:00-20:00,9
LAYS321230MSRVNZ23,11/12/1977,Pangender,Maywood,Fordem,Delaware,,225,Hubie,Muncer,Leggott,$14958.25,12:00-20:00,10
XTCA621131MTSQBR11,4/26/1979,Male to Female,Northwestern,Crescent Oaks,Elgar,6801,073,Gustavo,Ford,Geal,$25364.84,11:00-19:00,10
NUYJ720131HZSILX04,1/12/1970,Transmasculine,Jackson,Mockingbird,Scofield,,341,Currie,Khan,Manach,$17732.37,13:00-21:00,8
XALJ221131HZSPJU67,5/24/1998,Trans,Randy,Dorton,Bunting,,208,Alanson,Nears,Moan,$24852.48,13:00-21:00,9
FIWM220230HZSSCK49,7/1/1995,MTF,Northland,Corry,Boyd,ZTN,733,Jules,Pendry,Soonhouse,$17573.75,13:00-21:00,8
FKHI321107MYNIMF99,2/1/1979,Transgender Woman,Dawn,Alpine,Crowley,,492,Mateo,Hendrikse,MacGorrie,$11945.36,13:00-21:00,10
TPOH620931MZSFVH67,9/19/1989,Cisgender Man,Anniversary,Lakewood Gardens,Waywood,37487,797,Tony,Larcombe,Winnard,$23076.40,13:00-21:00,8
DQBH921231HVZZMD45,9/14/1972,Transsexual Woman,Boyd,Ludington,Corben,721 85,607,Worthy,Gristwood,Merrisson,$15691.39,12:00-20:00,8
NDIR921130HVZPVD96,6/21/1985,Pangender,Bonner,Kim,Erie,637-0404,206,Jedd,Astlet,Brixham,$22883.43,13:00-21:00,9
QWBD821230MZSQHE13,8/8/1986,Bigender,Buena Vista,Park Meadow,Nelson,,296,Corbin,Shorland,Charville,$16910.86,11:00-19:00,10
QXZV421030HYNUEX90,3/19/1974,Gender Variant,Victoria,Huxley,Birchwood,,746,Aldous,Broscombe,Derisley,$17631.81,13:00-21:00,10
TLJI721131HZSSQU04,8/8/1998,Cis Female,Chive,Riverside,Glacier Hill,,853,Galen,Terney,Pacey,$12424.49,10:00-18:00,7
VWMT821230HZSPMF49,9/14/1972,Pangender,Washington,Mcguire,Division,,070,Bradney,Trice,Cazin,$21201.44,12:00-20:00,10
NZGA220031MYNFOS05,7/15/1979,Other,Carioca,Bunting,North,1105,887,Trumann,Sapsford,How,$23506.95,13:00-21:00,10
RAEF521131MZSQZW35,11/17/1985,Cisgender Man,Doe Crossing,Dorton,Division,MD-3401,955,Hall,Mac,Ivins,$15317.36,13:00-21:00,10
SOMY320030HYNOKR66,10/16/1973,Cis Male,Raven,Meadow Vale,Raven,23016 CEDEX,600,Tobit,Figiovanni,Jerzak,$28745.34,13:00-21:00,6
BFON920631MZSSFD16,1/11/1970,Transsexual Woman,Russell,Fallview,Tennyson,,652,Abbot,McNeice,Puttergill,$16352.05,7:00-15:00,10
ERQX121031MZSTID85,10/10/1984,Cis Male,Hansons,Delaware,Reinke,,994,Shaw,Bessent,Conan,$23635.97,12:00-20:00,10
PBTM921100HYNKMP47,6/25/1979,Neither,John Wall,Prairie Rose,Aberg,44143,563,Addison,Cathery,Mitchener,$27312.52,13:00-21:00,10
MSZH421131HSPUDQ45,10/23/1980,Trans Female,Victoria,Sherman,Lakewood,5103,367,Padriac,Oliveto,Swayton,$24940.99,13:00-21:00,8
RLKH521130HZSVLU92,11/30/1999,Trans Man,Harbort,Mesta,Dryden,,857,Ware,Murney,Bonney,$21924.56,11:00-19:00,9
GVDL321200MZSCHT34,10/20/1996,Transgender Man,Raven,Gale,Fulton,512 63,167,Marijn,Wise,Jozwiak,$10270.01,13:00-21:00,10
IHOM521131HZSGEP15,2/22/2000,Transmasculine,Sutherland,Crownhardt,North,11044,682,Yorgos,Galiford,Bostick,$16553.57,13:00-21:00,9
GJXU221230HVZZAJ86,8/2/1975,Trans Male,Tony,Johnson,Fordem,84-240,762,Sigismond,O'Driscole,Alexsandrov,$17794.53,13:00-21:00,10
AMWQ720208MTCPKX29,11/28/1997,Transgender,Banding,Bluestem,Rutledge,68580-000,960,Kimball,Morcom,Pietrzyk,$23532.24,13:00-21:00,9
OSMT921131MYNGFH03,6/7/1995,Androgyne,Cascade,Linden,Bobwhite,,358,Thorn,Woolrich,De Witt,$27596.00,12:00-20:00,10
XZKS021231HYNSCB98,5/29/1970,FTM,Daystar,Banding,Sunfield,14790-000,867,Maximilianus,Davley,Le Ball,$21477.10,13:00-21:00,8
HMDP421231HYNALV95,4/30/1999,Two-Spirit,Welch,Fuller,Helena,663510,638,Milty,Brixey,Badsey,$15300.11,12:00-20:00,9
IKPV621230HZSWJF35,10/31/1994,Transsexual Female,Loomis,Glacier Hill,Lyons,19610,276,Walden,Raeside,Toor,$18649.07,13:00-21:00,6
VDUJ521130HZSZCT08,5/20/1974,Transgender Male,Pearson,John Wall,Kipling,250 91,836,Isac,Cheverton,Paradyce,$16043.93,13:00-21:00,7
DEUY521214HYNQTO33,10/4/1990,Cis,Pennsylvania,Columbus,Steensland,666-0137,498,Nikolas,Danovich,Skivington,$12723.14,12:00-20:00,9
UZBE521009MVZESW96,10/19/1994,Cisgender Male,Claremont,Oneill,Hanson,69624 CEDEX,927,Jaime,Ponder,Wycliffe,$11107.92,13:00-21:00,9
XVZG221130HSLGTS70,11/22/1984,Cis Woman,Florence,American,Amoth,,331,Saul,Isacoff,Briskey,$17384.70,12:00-20:00,10
OPGE421219MTCACZ92,5/23/1989,Gender Nonconforming,Surrey,Toban,Fairview,,721,Fairlie,Leftridge,Netting,$16798.31,11:00-19:00,10
QGDN021119MZSFJK22,5/11/1979,Trans Woman,Holmberg,Hallows,Mendota,,687,Roberto,Fidelli,Atcherley,$15134.86,12:00-20:00,10
HEZL821131HVZZSE62,4/1/1985,Neutrois,Bluestem,Gulseth,High Crossing,,679,Michele,Gildroy,Kubik,$17469.04,11:00-19:00,10
AZVN521215HZSNVC34,9/29/1979,Transsexual Person,Acker,Memorial,Service,,246,Terry,Lipsett,Scade,$21491.87,7:00-15:00,6
VJNI820630MTSQNR93,2/25/2000,Cis Man,Mayfield,Atwood,Lighthouse Bay,,175,Meredith,Leupoldt,MacGiffin,$25381.27,11:00-19:00,10
SKEU321212HVZLBG47,11/8/1985,Transgender Woman,Bayside,Laurel,Butternut,1699,340,Finlay,Pasticznyk,Pilfold,$23131.89,12:00-20:00,10
PFYA721231HZSYUC37,2/22/1993,Gender Fluid,Garrison,Northwestern,Pleasure,,351,Web,Fortye,Van Der Straaten,$18987.68,13:00-21:00,10
PRGQ821231HZSOWC07,5/20/1988,Trans Male,Melvin,Jenna,Bobwhite,,226,Farleigh,Pomfrey,Dennistoun,$18286.44,13:00-21:00,10
DFWJ421103MYNWXP21,1/26/1977,Trans Person,Packers,Del Mar,Granby,,591,Hadleigh,Capozzi,Berryman,$17133.17,13:00-21:00,9
IVXG921200HVZLNX62,12/27/1983,Cisgender Female,Anthes,Moose,Farwell,,289,William,Toffolini,Drever,$12357.99,13:00-21:00,10
PMBI721231MZSJLC25,5/4/1974,Transsexual Man,Anthes,Summer Ridge,Park Meadow,8650-104,951,Sunny,Di Bernardo,Ceely,$26339.57,11:00-19:00,8
EUHD621017HTSWPO75,4/27/1988,Other,David,Westerfield,Monica,671610,924,Burg,Calderon,Du Barry,$11308.08,12:00-20:00,10
HIZQ621131HZSNBV31,7/18/1988,Non-binary,Sauthoff,Moose,2nd,,895,Fredric,Pudner,Mishaw,$25530.83,13:00-21:00,6
BPJN820219MZSXKB55,10/28/1980,Genderqueer,Bultman,Nova,John Wall,V31,985,Pren,Chitson,MacAnespie,$26952.43,12:00-20:00,9
JAOZ021031HYNNOX93,4/18/1999,Genderqueer,Helena,Mandrake,Leroy,ZBG,872,Vite,Wedderburn,Grzegorek,$28863.24,10:00-18:00,10
YIVM321230HTSXJM91,4/15/1980,Transgender Man,Caliangt,Florence,Sutherland,,231,Rubin,Faughnan,Start,$21499.18,12:00-20:00,10
YIAZ221231HNLMZX95,8/15/1992,Trans,Jenna,Di Loreto,Farragut,42-262,519,Ramsey,Widdop,Holtom,$29391.47,13:00-21:00,10
FUVC821130MTCNKA00,7/28/2000,Cisgender Woman,Dixon,Becker,Hallows,,346,Moise,Stringfellow,Robben,$16125.90,13:00-21:00,7
PWLD920831HZSYOR67,8/6/2000,Cis Man,Stephen,Milwaukee,Forest Dale,67130,833,Gibbie,Loyd,Timmes,$22799.12,13:00-21:00,10
AKPT521204MZSVXJ23,4/2/1977,Transsexual Female,Claremont,Jenifer,Golf Course,61200,845,Daryl,McLeoid,Gwinnell,$12817.97,12:00-20:00,10
RXYV621218MYNXVF23,4/13/1989,Trans,Hoard,Fulton,Darwin,997-0753,326,Guthrie,Tarborn,Fedder,$12116.42,12:00-20:00,10
JNEQ821130HTCHFW75,6/23/1986,Cis Woman,Roxbury,Oriole,Kensington,06002,600,Basilio,Measor,Templman,$25086.97,12:00-20:00,10
AJZI020230MZSZXR39,9/19/1978,Transmasculine,Rieder,Kim,Hauk,44945 CEDEX 9,924,Haze,Halifax,Bemand,$13726.01,12:00-20:00,8
JMZG721131MVZNZI92,5/6/1977,Trans Woman,Iowa,Luster,Dorton,18351,945,Todd,Motion,Wasson,$19851.15,13:00-21:00,8
PJZS321131HYNMHG21,10/30/2000,Trans Person,Fordem,Brown,Lakewood,92195 CEDEX,436,Brewer,Winear,Locke,$13339.85,13:00-21:00,9
UBNO421002MZSPLO21,6/19/1987,Gender Questioning,Northport,Mayfield,Alpine,4600-596,622,Hobie,Kynge,Trembath,$19640.96,13:00-21:00,8
HCUD121131HZSALD40,1/30/1980,Trans Woman,Kings,Banding,Swallow,,109,Leslie,Bollom,Luetkemeyer,$28641.35,12:00-20:00,7
WXVZ821231HTCXGP11,1/1/1975,Transgender Person,Straubel,Union,Dwight,,495,Flinn,Girod,Ghirardi,$14591.02,13:00-21:00,9
IGZQ921131MZSWER53,7/1/1979,Two-Spirit,John Wall,Corben,Cottonwood,71049,442,Hamish,Woolaghan,Colum,$22317.75,13:00-21:00,6
RVLI121202MZSHEM27,2/7/1980,Cis Female,Hansons,Northridge,Bartelt,,360,Gail,Peppard,Kleinfeld,$10840.92,7:00-15:00,10
QESY021131MTSKZF22,4/18/1986,Transgender Man,Bartillon,Goodland,Vera,520006,831,Eldredge,Barreau,Klosa,$18918.40,11:00-19:00,9
RYMX021131HVZGNQ39,10/12/1972,Transsexual Male,Delaware,Fairview,La Follette,4411,699,Hendrik,Djurevic,Halpin,$14964.71,13:00-21:00,9
NCKE921230HZSDZM45,10/11/1987,Transsexual Man,Loomis,Kinsman,Toban,242030,333,Bo,Windress,Leete,$12979.49,13:00-21:00,10
YHIW021231MSRHQP96,9/18/1993,Non-binary,Carioca,Kings,Dahle,,822,Holmes,Mayall,Loosely,$13284.50,13:00-21:00,9
JPFV921231MZSXOM59,11/21/1975,Bigender,Fisk,Basil,Sundown,,970,Goober,Poulgreen,Antonellini,$23791.18,13:00-21:00,10
QDBH520031MYNFWG07,2/6/1982,Transfeminine,Transport,Waxwing,Rieder,94946 CEDEX 9,439,Thadeus,Fouracre,Kear,$21191.68,12:00-20:00,7
ZWDQ621219MYNNSP61,4/17/1998,Non-binary,4th,Meadow Valley,Bultman,61304 CEDEX,593,Chick,Burberow,Larwood,$16798.92,13:00-21:00,10
YZOE321130HYNGEF82,8/17/1979,Transfeminine,Quincy,Manley,Harper,,428,Frans,Broderick,Gissop,$12600.06,13:00-21:00,9
NCVB521231MZSTHW38,3/15/1999,Transsexual Person,Heath,Eggendart,Hoepker,1250,359,Erhard,Oxnam,Gooding,$25537.04,13:00-21:00,10
MSUN221231HZSPMB56,10/12/2000,Transgender Male,Beilfuss,Tennyson,Eastwood,,998,Sinclair,Stonard,Orbine,$12070.48,12:00-20:00,7
ODSN021230HVZAHM99,12/5/1975,Cis Man,Namekagon,Toban,Autumn Leaf,413028,475,Noby,Fominov,Aers,$22659.62,13:00-21:00,10
CSAJ321130MVZLZY93,9/13/1997,Trans Female,Fuller,Summerview,Quincy,,154,Aguistin,Oxnam,Kardos,$20357.71,13:00-21:00,7
VILX721230HVZTUD58,12/7/1998,Trans Person,Calypso,Dryden,Badeau,,143,Alair,McComiskie,Peye,$29150.56,10:00-18:00,10
ICDW221031MYNDIC74,3/16/1988,Androgynous,Weeping Birch,Harbort,Continental,,300,Cornie,Brannan,Verdie,$14193.03,9:00-17:00,9
KSJH221204MZSJXT76,12/20/1981,Cis Woman,Lakewood,Debs,Declaration,,938,Ernest,Johnsey,Imlock,$18020.80,13:00-21:00,10
IZMF821130MZSDPQ49,4/28/1974,Neutrois,Talisman,Pennsylvania,Vahlen,,759,Cyrill,Smithend,Claisse,$14742.62,13:00-21:00,6
JLQU121130HYNPSV32,4/23/1997,Bigender,Bobwhite,Northport,South,,147,Mateo,Placstone,Sheaber,$10415.85,13:00-21:00,9
BVOH321231HZSNHI03,7/25/1985,Cisgender,Fairview,Homewood,Sommers,95600-000,100,Shurlock,Carleton,Kirkham,$26458.15,13:00-21:00,10
NXYR021231HZSVWH78,2/20/1981,Transgender,Mallory,Bayside,Vernon,389-2253,234,Pedro,Damiata,Fiveash,$26496.25,12:00-20:00,9
AFIC820431HZSXUM80,8/23/1984,Cisgender Man,Meadow Ridge,Rusk,Bashford,L-8273,058,Conny,Walsh,Smidmore,$23148.94,12:00-20:00,8
SEVQ521219MYNTFM99,12/3/1987,Trans Man,Burning Wood,Lillian,Coleman,,142,Boote,Sayse,Otto,$14913.35,12:00-20:00,8
PADI820631HZSRWS96,6/3/1999,Gender Questioning,Buhler,Donald,Mariners Cove,27180,037,Noby,Kelwick,Burchfield,$22722.65,9:00-17:00,10
OTCU221231HZSWMK28,11/12/1979,Neither,Lakewood,Swallow,Debs,98-270,157,Alick,Dachey,Jeays,$22181.36,13:00-21:00,9
RGZE921230HZSWHQ58,2/2/1985,Gender Questioning,Texas,Ilene,Sherman,88385-000,851,Oswald,Hughson,McKinney,$28494.08,11:00-19:00,9
RBTF921115HZSGOB28,7/17/1989,Other,Rigney,Commercial,Steensland,,396,Kerby,Karolyi,Craw,$26011.15,9:00-17:00,10
FSNV521130HVZKEY66,11/22/1993,Trans,Oneill,Kenwood,Division,,474,Marty,Pochin,Shepley,$13576.52,11:00-19:00,8
AECM621008HVZQKB29,7/28/1982,Cisgender,High Crossing,New Castle,Larry,,972,Dalli,Josefson,Harding,$27572.73,13:00-21:00,9
KSRY121212HZSHTV94,7/18/1997,Transsexual Person,Tennessee,Lerdahl,Michigan,664 55,250,Forbes,Woolaghan,Roscrigg,$18391.91,11:00-19:00,9
LNFI921030HYNLEZ34,12/19/1992,Cisgender Female,Duke,Bartelt,Esch,88390-000,029,William,Threadgold,Critzen,$27257.10,12:00-20:00,10
YCHU620610HZSUAB24,9/1/1977,Transsexual Female,Boyd,Valley Edge,Hanson,,843,Paton,Oguz,Fabry,$28059.12,13:00-21:00,10
CZBL321002MYNCEG55,12/5/1988,Transfeminine,Susan,Dorton,Knutson,,151,Carson,Matovic,Beahan,$11997.94,12:00-20:00,9
WXQP721230HZSDZI47,7/28/1985,Bigender,Tennessee,Dottie,Meadow Ridge,,790,Derrek,Gladden,Skipperbottom,$20546.12,13:00-21:00,10
GKXP721031HZSLJQ67,1/20/1994,Gender Nonconforming,Arizona,Weeping Birch,Northview,5030-213,267,Penrod,Jenkins,Blasgen,$27124.29,13:00-21:00,9
MWZI521100HZSMGI38,6/3/1996,Cis,Hazelcrest,Spohn,Hoffman,,058,Derrek,Harrow,Marshland,$22629.42,13:00-21:00,7
MBUV021105HZSEDR48,4/18/1976,Transgender,1st,Gerald,Spohn,,413,Alistair,Billings,Leaver,$15094.33,13:00-21:00,10
VIWR521231HZSEMO68,6/17/1990,Gender Variant,Vernon,Namekagon,Thierer,93828,524,Massimiliano,Danzig,Flacknell,$19090.78,12:00-20:00,10
UGYV221231HZSEYH80,11/30/1981,Genderqueer,Miller,Dovetail,Birchwood,,374,Georgie,Silverstone,Hollow,$27762.52,13:00-21:00,10
UANK621015MYNULK43,11/5/1972,Agender,Vermont,Cardinal,Bunting,442 40,176,Cash,Shaw,Riddock,$16409.73,8:00-16:00,10
VPJG421231MZSMAH08,3/12/1974,Transsexual,Waxwing,High Crossing,Nevada,,723,Gearalt,Blackwell,Cogzell,$13757.04,13:00-21:00,9
LQNO021230MZSEVK71,4/26/1977,Gender Variant,Fairview,Stoughton,Carey,,497,Val,Fruen,Cowdray,$17831.15,12:00-20:00,10
AXVC120030MYNPNT65,8/28/1992,Transsexual Male,Rigney,Ridge Oak,Green Ridge,98115,849,Talbot,Jezzard,Reston,$21437.20,13:00-21:00,10
YPHK821203MZSWFA77,3/26/1991,Transgender Man,Clarendon,Commercial,Green,,179,Monty,Cooksey,O'Luby,$13253.78,13:00-21:00,10
HFDS221231HVZPOS75,9/3/1990,Two-Spirit,Loomis,Farmco,Blaine,4203,577,Levi,Bramich,Baddiley,$22542.52,13:00-21:00,9
DHLR121215MZSUFA24,4/16/1980,Bigender,Mosinee,Cascade,Delaware,,636,Roland,Drayson,Hacquoil,$26842.86,12:00-20:00,10
TFKP221230HTCQUM10,12/29/1976,Cisgender Female,Talmadge,Claremont,Holmberg,,626,Germain,Lowrie,Erley,$15231.05,11:00-19:00,10
VSMN521231HYNFEA30,9/1/1982,Genderqueer,Moulton,Clarendon,Scott,3899,879,Maximilianus,Belbin,McGeneay,$29252.95,13:00-21:00,10
EZWR121231MZSLZG03,11/1/1973,MTF,Iowa,Summit,5th,,092,Jone,Sloss,Mott,$26763.42,13:00-21:00,10
CQUN721231MYNVCF13,5/18/1981,Cisgender Male,Commercial,Iowa,Thompson,,084,Perren,Riatt,Balthasar,$29430.23,8:00-16:00,10
PNWT521200MYNLTD07,1/21/1977,Transgender,Chive,Arapahoe,Ridgeway,18800-000,523,Isak,Stubbin,Millom,$29850.22,13:00-21:00,10
VQFN221031HZSVHT37,2/2/1977,Pangender,Valley Edge,Riverside,Larry,,939,Larry,Whysall,Freeborne,$20633.20,12:00-20:00,8
PNBS621031MZSIGC03,8/14/1994,Trans Person,Columbus,Crownhardt,Village,93285 CEDEX,443,Zebadiah,Hierro,Rudeyeard,$15019.64,10:00-18:00,10
DPLO021119HZSFDG27,10/5/1980,MTF,Hanson,Fisk,Sachtjen,,326,Boris,Ramsby,Sayce,$10493.88,11:00-19:00,10
HLCS921213MVZLBC26,5/20/1993,Intersex,Warrior,Talisman,Sunnyside,96840,726,Baryram,Meiner,Bezants,$15192.85,12:00-20:00,10
NRXJ720331MTSTXO56,1/14/1993,MTF,Hayes,Commercial,Continental,74900-000,695,Lemmy,McBain,Musk,$11145.66,13:00-21:00,10
KIJB821230HZSFEG13,7/28/1979,MTF,Helena,Bartelt,Paget,5130-025,647,Jdavie,Rawll,Malimoe,$26474.73,11:00-19:00,9
MNGI521131MYNFYE67,5/23/1995,Cisgender Woman,Southridge,Nelson,Glendale,,276,Brendan,Bercher,Brundall,$12995.09,11:00-19:00,10
ZHCY621131HVZIBQ94,9/16/1992,Transsexual Male,Cody,Carey,Farwell,4755-192,260,Darb,Lewton,Terney,$10042.58,12:00-20:00,8
JICX421219MZSOIS65,6/19/1999,Androgyne,Mcguire,Manitowish,Crownhardt,301792,192,Khalil,Fardo,Peskett,$26581.58,10:00-18:00,10
TOUN621205MYNSRJ21,8/10/2000,Gender Nonconforming,Autumn Leaf,Beilfuss,West,363604,559,Dino,Klementz,Allcoat,$17869.12,12:00-20:00,9
TVSU121130HZSZVA58,7/31/1979,FTM,Oak Valley,Hollow Ridge,Donald,,271,Grannie,Domini,Betteridge,$12733.55,13:00-21:00,6
PDHA720630MZSIHT19,9/5/1990,Transgender Person,Northland,Kenwood,Lunder,30394,702,Sasha,Rochester,Havard,$28778.57,11:00-19:00,10
QLVU521011HTSKNM22,5/29/1986,Cisgender Male,Rowland,Oxford,Forest Run,66617,533,Pattin,Stenett,Bisset,$18638.01,11:00-19:00,10
HUQV721231MTSFUD56,6/3/1971,Trans Man,Mifflin,Portage,Oak Valley,,140,Romeo,Winney,Kubiczek,$24887.47,10:00-18:00,10
VWKU521230HVZXYG40,4/3/1977,Transfeminine,Kingsford,Hoard,Thackeray,,470,Taite,Cambden,Orgel,$21803.72,12:00-20:00,9
JNBL521231MZSXMD92,8/5/1998,Gender Nonconforming,Clemons,Stephen,Lukken,,665,Klemens,Beardall,Whimp,$16023.45,13:00-21:00,10
NUAB021205HYNGNE27,1/7/1987,Cis,Stoughton,Meadow Valley,Autumn Leaf,,059,Yves,Beceril,Da Costa,$11685.99,12:00-20:00,10
MJFI920305MZSUHR56,7/1/1986,Transgender Person,Spenser,Nova,Northridge,7102,969,Chaddie,Sterrie,Mendenhall,$22317.45,13:00-21:00,10
EPKT021030HYNSNM88,1/2/1980,Transgender Male,Dottie,Stuart,Carey,,056,Aldric,Beynon,Pechet,$19689.52,12:00-20:00,9
FDVS421030HSPMZD03,2/24/1978,Gender Questioning,Anthes,Chinook,Eastwood,,774,Patrick,Kunath,McAllester,$10205.54,11:00-19:00,10
QVFX521100HZSZBM47,7/20/1993,Gender Variant,Canary,Dixon,Roth,K1M,367,Mac,Fonquernie,Dorrian,$23030.98,13:00-21:00,8
PIAJ021131HVZNIK34,9/30/1971,FTM,Rockefeller,Kennedy,Graedel,45218,485,Dillie,Udell,Ivimey,$24791.59,13:00-21:00,8
NRFO321006MZSWJH51,3/4/1987,Gender Variant,Esch,Melody,Grover,,744,Huntlee,Skate,Villiers,$25741.35,12:00-20:00,9
JMIC521214MYNGQV50,9/2/1997,Agender,Trailsway,Alpine,Springs,673498,762,Arman,Binstead,Calverd,$15909.30,13:00-21:00,10
RVCE221230HYNBZA97,4/29/1991,Transsexual Female,Namekagon,Prairie Rose,International,,533,Hernando,Binnie,Cleugher,$15889.18,11:00-19:00,10
NRFW921231MVZVAC64,9/28/1973,Gender Variant,Del Sol,Prentice,Dakota,548 32,372,Norrie,McNelis,McGavigan,$21552.56,12:00-20:00,7
YVMG521130MZSTYP53,12/21/1977,Androgyne,Village Green,Arizona,Hanover,,303,Leonard,Skim,Iacovone,$11849.03,13:00-21:00,9
HNKC521206HVZKBP45,2/13/1994,Transsexual,Gerald,Manley,Green Ridge,18-411,972,Addie,Fabler,Ferreli,$12108.34,12:00-20:00,10
LZVX521031MYNDRN56,6/9/1995,Trans Male,Memorial,Northwestern,Ludington,6612,560,Grant,Grinyov,Botley,$13053.95,11:00-19:00,8
PIHT321130HZSEJP04,1/2/1971,Gender Nonconforming,Dryden,Hooker,Village Green,,081,Cass,Tale,MacCarter,$24923.53,13:00-21:00,8
OWCE821130MZSZWF50,12/22/1976,Transgender Male,Jackson,Spohn,Stuart,15-134,206,Ernest,Tootin,Keese,$12078.54,12:00-20:00,8
YBOQ220131MSLIBD72,6/10/1998,Transgender Woman,Porter,Lillian,Hollow Ridge,,960,Witty,Castro,Golightly,$17687.95,12:00-20:00,10
LIFZ021231MZSDHW45,3/28/1999,Gender Questioning,Rockefeller,Pawling,Hoffman,4118,078,Putnem,Mattheissen,Prando,$24930.93,10:00-18:00,10
TZGP521031HTSUTY77,3/20/1982,MTF,American Ash,Cordelia,Quincy,51372,746,Jeramey,Dalziell,Baudichon,$14069.33,12:00-20:00,7
YOSL821130MVZAIQ41,11/20/2000,Transsexual Male,Cordelia,Summer Ridge,Jay,1944,023,Quintus,Zammitt,Ashfold,$17089.88,13:00-21:00,10
JHOE321231MYNKPA40,10/3/1990,Transsexual Man,Stuart,Lakeland,Coleman,734528,565,Skipp,Pallatina,Rowles,$20756.46,13:00-21:00,9
VDWB220004MZSWTE18,7/1/1990,Gender Nonconforming,Bartillon,Bartillon,Morning,B4P,756,Hewie,Bowness,Hayes,$14769.06,7:00-15:00,9
ASEX921231HTCGAC19,2/19/2000,Cisgender Female,Swallow,Manitowish,Bellgrove,,189,Brett,Eltune,Budgeon,$29279.81,8:00-16:00,9
QSZY021231MYNATW72,10/8/1991,Gender Questioning,Dayton,Westport,Duke,,057,Holmes,Goodlett,McEvay,$13686.44,13:00-21:00,8
EGLU220014HZSHVE45,9/17/1993,Intersex,Pankratz,East,Toban,,676,Locke,Van der Velde,Alford,$11766.80,12:00-20:00,10
AEPL621130HVZNFL24,6/15/1997,Transsexual Man,Sloan,Westerfield,Haas,6304,740,Monty,Matchett,Cowdray,$24464.55,13:00-21:00,8
QOJH821230MZSOSY12,11/2/1990,Other,Basil,Delaware,Longview,V2A,151,Brucie,Ladyman,Gronaver,$21893.83,13:00-21:00,10
RNZQ021231MYNIHJ94,9/4/1978,Transsexual Male,Mariners Cove,Starling,Sundown,403964,178,Flinn,Duthie,Crosse,$29842.27,10:00-18:00,10
PAOJ321231HVZEBL11,1/9/1973,Transsexual Man,Lakeland,Monica,Lake View,,318,Emmett,Rubke,Gallelli,$12928.76,9:00-17:00,10
DYBM121031MTCVTB14,5/21/1991,Neutrois,Everett,Harbort,Moose,,790,Cass,Mayho,Barbrook,$24980.02,13:00-21:00,10
KAGS821231HZSJSK82,12/13/1985,MTF,Clemons,Sycamore,Orin,9805,684,Brian,Jacquet,Avramovic,$12817.00,12:00-20:00,10
QALP721230MYNSGU53,11/22/1999,Androgynous,Bunting,Hauk,Vera,,760,Toiboid,Couroy,O'Hartigan,$15463.49,13:00-21:00,10
VGNP921231MTCTIA30,1/4/1997,Gender Variant,Cascade,Loomis,Kim,,854,Garreth,Lindsey,Blacksland,$26574.70,12:00-20:00,7
BLPU921110HTSQDL29,3/25/1983,Gender Fluid,Namekagon,Nobel,Loftsgordon,,252,Ferrell,Biernat,Fazakerley,$21848.51,13:00-21:00,10
AQCN321231HTCGYS99,10/9/2000,Transsexual Man,Eastlawn,Sommers,Haas,,266,Temple,Morales,Docharty,$25579.21,13:00-21:00,6
QESY221231MZSRSQ93,10/21/1996,Trans Man,Hagan,Charing Cross,Paget,,113,Kleon,Ker,Sauven,$11095.54,13:00-21:00,6
IZDM621230MZSCXT81,3/26/1987,Agender,Clyde Gallagher,Little Fleur,Quincy,,419,Sebastiano,Jerisch,Peto,$23154.47,12:00-20:00,10
NMPB421231HZSNQD56,1/18/1989,Androgynous,Loftsgordon,Nobel,Crest Line,,883,Westbrook,Adolphine,Starbuck,$10608.81,13:00-21:00,10
IXNM921230MZSXKP45,12/8/1996,Non-binary,Pawling,Dapin,Grasskamp,,240,Trip,Bere,Angrove,$25188.98,12:00-20:00,10
XIFE521231HSRBLT99,1/1/1989,Transsexual,Graedel,Sycamore,Express,,417,Neal,Tills,Twidell,$22499.21,12:00-20:00,8
OYTZ921213HZSZNV02,10/6/1989,Transgender Man,Derek,Sunnyside,Bonner,,034,Dunc,O'Dare,Ryder,$14297.17,13:00-21:00,9
ZINX620330MZSVCZ42,9/8/1992,Transgender Female,Hayes,Farragut,Walton,,961,Rafaellle,Hartright,Extence,$16447.75,13:00-21:00,8
PKQT121231MZSZKY27,6/26/1988,Trans Person,Clemons,Lighthouse Bay,Eagle Crest,1404,179,Judah,O'Mohun,Trudgeon,$25966.89,12:00-20:00,10
UBHF721218MTCOSP98,5/4/1993,Pangender,Magdeline,Red Cloud,Marcy,,730,Dudley,Kave,Loudon,$23407.44,13:00-21:00,9
OZKB421231HYNGYT88,6/24/1983,Two-Spirit,Ohio,Cardinal,Bay,,943,Gino,Rudman,Pimblett,$23682.33,13:00-21:00,10
FUTD021231MYNSLW44,3/22/1977,MTF,5th,Eliot,Sauthoff,,864,Robers,Whawell,Phaup,$20833.22,11:00-19:00,10
NARZ021130MYNINP55,8/28/1988,FTM,Ludington,Lakewood,Cordelia,,091,Chas,Wardlaw,Raynham,$11986.31,13:00-21:00,8
GHBQ820430HYNCVM67,4/6/1994,Transgender Person,Monument,Del Mar,Kinsman,,503,Norby,Beggi,Haggerston,$15976.94,13:00-21:00,10
SRXE821015MZSUXR92,12/22/1987,Gender Variant,Drewry,Donald,Lien,34-322,577,Jessee,Annes,Rilston,$25200.38,12:00-20:00,6
PWAR321131HVZSKH91,8/12/1988,Transgender,Oxford,Towne,Burning Wood,,997,Huntley,Eustanch,Episcopio,$19438.09,10:00-18:00,10
GXIC321231MZSKCD67,5/6/1975,Cis,Briar Crest,Comanche,Sutherland,,531,Rolando,Towlson,Batstone,$23133.47,11:00-19:00,10
HDNT521231MZSCQE93,12/17/1977,Genderqueer,Dawn,Troy,Stephen,71260,362,Berkeley,Ivakhin,Bartlomiej,$18682.01,13:00-21:00,10
THVX621131HVZYUZ11,2/27/1992,Trans,Shelley,Briar Crest,Autumn Leaf,,505,Arnie,Anton,Lighten,$14318.99,13:00-21:00,9
XGTW421131HZSEAZ44,2/21/1992,Transsexual Woman,Pine View,Colorado,Sugar,,304,Clement,Samsonsen,Varian,$18642.77,12:00-20:00,9
FDIR121131HYNUGJ52,6/7/1973,Androgyne,Bunting,Mcbride,Waubesa,,418,Bevin,Rowan,Hovington,$12875.31,12:00-20:00,9
EZPS620212MZSWSJ70,2/19/1979,Cis Male,Monterey,Arrowood,Oneill,,963,Curtis,Warlaw,Hilldrop,$24054.73,13:00-21:00,10
VJHE821031MZSMCH90,12/10/1996,Trans Female,Bartelt,Washington,Randy,,755,Erik,Alman,Farnan,$27476.48,11:00-19:00,10
IMYN921115HYNFTC68,5/15/1984,Transsexual Man,Lunder,Lindbergh,Bonner,,344,Holly,Herreros,Dogg,$13268.93,12:00-20:00,9
IFYC821230MZSPCJ99,11/30/1973,Androgynous,Killdeer,Mcbride,Briar Crest,,454,Hayward,Rosa,Arundel,$29115.47,13:00-21:00,9
RQCG021131MVZYQW29,5/13/1982,Male to Female,Bowman,High Crossing,Crowley,369-1241,459,Edsel,Messruther,Fandrich,$18146.06,13:00-21:00,9
HWPG321230MYNTFY37,8/28/1999,Androgynous,Dapin,Debra,Northridge,751 41,970,Job,Avo,Hudleston,$24486.16,13:00-21:00,9
ZVLT421231HZSBFE90,8/25/1987,Androgynous,Clarendon,Waxwing,Hovde,J6W,296,Evelyn,Bowller,Bennion,$14238.75,13:00-21:00,9
LMDN321231HYNUXB60,1/11/1997,Gender Nonconforming,Graceland,Basil,Summit,,813,Burg,Caunter,Winterton,$16504.06,11:00-19:00,10
QSNC321001MZSPWD84,5/14/1997,Cis Male,Northview,East,Huxley,,923,Niles,Davinet,Pelos,$16249.79,11:00-19:00,9
IFAN921230HZSOXY18,9/1/1987,MTF,Beilfuss,Anderson,Bultman,,408,Rabi,Wildey,Airth,$22819.33,13:00-21:00,10
WOAG321231MZSOZR77,4/5/1994,Neither,Basil,Raven,Westend,172389,877,Brigg,Tilburn,Halburton,$11751.34,11:00-19:00,10
EBJR721116HZSFEO93,1/20/1976,Gender Nonconforming,Surrey,Transport,Randy,,050,Saw,Corson,Capey,$10068.50,13:00-21:00,8
ZFUH621131HTCLJC15,9/1/1978,Trans Woman,North,Eastlawn,Homewood,,496,Correy,Laborde,Rodders,$26823.81,11:00-19:00,10
UKYN721031HYNCGL22,2/20/2000,Androgyne,Ramsey,Susan,Annamark,,896,Ariel,Lattey,Sommers,$17852.25,13:00-21:00,8
WNDF821218HYNAKG73,4/2/1997,Intersex,Riverside,Dawn,Autumn Leaf,69660-000,510,Padriac,Milson,Stonham,$27251.48,10:00-18:00,10
XZST021231HYNZHP12,7/5/1985,Non-binary,Oak Valley,Hayes,Corben,,227,Knox,Mawman,McDool,$29484.74,13:00-21:00,10
VKSM021203MZSVWP67,8/23/1988,Transgender Person,Bunker Hill,Sunfield,Arrowood,,741,Pattin,Largent,Paute,$14379.73,13:00-21:00,9
XZGC921131HYNNAG01,12/5/1973,Female to Male,Forster,Talisman,Fulton,2205,260,Bjorn,Britzius,Dommerque,$10394.48,9:00-17:00,10
OIVY221230MZSNPH69,8/14/1972,Transfeminine,Elka,Crownhardt,Pleasure,12020 CEDEX 9,091,Grantley,Coulthart,Willshere,$12842.74,11:00-19:00,10
SINK721203HZSGQT95,4/7/1990,Trans Woman,Hanover,Bartelt,Miller,30120,907,Harcourt,Kershow,Brozek,$26632.60,12:00-20:00,9
TLZR521031HZSPQT73,2/7/1991,Other,Buhler,Oxford,Carioca,48912,014,Dario,Petrolli,Cowins,$18496.54,11:00-19:00,6
YHDC921031HYNSUM43,5/6/1993,Trans Woman,Graedel,Lakeland,Tomscot,,416,Derry,Hovell,Harrop,$13080.31,7:00-15:00,10
QTCB820030MZSOKC37,11/22/1996,Transsexual,West,Trailsway,Thierer,,333,Shermy,Fassan,Clell,$21026.73,13:00-21:00,10
NYFC121130HZSYPZ56,1/10/1990,Trans Female,Caliangt,Schiller,Chive,,182,Bernhard,Kovelmann,Harrhy,$17476.09,8:00-16:00,10
YPGM321230HYNPXV79,11/27/1988,Cis Woman,Ohio,Katie,Mesta,3025-610,765,Ira,Broz,Brisson,$23572.33,12:00-20:00,8
YFNC621230MSRCUB63,4/14/1974,Cisgender Male,Bluejay,Johnson,Reindahl,92056 CEDEX,746,Bendicty,Blacker,Hearnah,$28789.87,10:00-18:00,10
ORKY121231HZSERU91,8/13/1970,Cis Female,Superior,Porter,Burrows,,920,Alberto,Iacobetto,Souter,$23523.68,13:00-21:00,8
WSFB721130HZSYBF07,12/4/1989,Neutrois,Derek,Red Cloud,Pepper Wood,,651,Jordon,Swanborrow,Gateley,$16552.99,12:00-20:00,10
SDTM821131HYNQAI73,5/7/1989,Gender Variant,Shasta,Mayfield,Sunfield,,479,Davidson,Samsin,Havick,$23077.65,13:00-21:00,6
PMSB621030HZSFGC09,2/12/1971,Cisgender Female,Straubel,7th,Lotheville,13409,356,Hunt,Joannic,Hattigan,$16825.07,13:00-21:00,9
FHJD821131MTSJSV68,12/8/1982,Male to Female,Butternut,Cody,Kensington,186120,342,Chucho,Maudsley,Breeton,$21565.76,12:00-20:00,10
XJGH220031MTSMED09,11/2/1988,Neutrois,Manufacturers,Mandrake,Novick,,512,Clemmy,Baruch,Nelissen,$13095.83,12:00-20:00,10
KHEC121116HZSYZH84,6/13/1992,Transgender Woman,Ridgeway,Lunder,Charing Cross,,249,Jacky,Schultheiss,Bootland,$15468.35,13:00-21:00,10
HTLR721030MSLBKI86,9/1/1979,Transgender Male,Sunnyside,Sunnyside,Eggendart,,592,Drugi,Bixley,Warton,$27717.92,11:00-19:00,9
BCKV320131MYNTFQ70,10/4/1981,Non-binary,Holmberg,Crest Line,Sullivan,413242,075,Kaspar,Nehlsen,Casarino,$24014.36,7:00-15:00,10
NYZD621131MZSRIC45,12/20/1985,FTM,Victoria,Stang,Onsgard,,122,Dill,Stonnell,Leagas,$29352.94,13:00-21:00,9
WAJI221031MYNOSA24,6/30/1976,Transmasculine,Brentwood,Springview,Butterfield,,885,Jacky,Follin,Sells,$15210.24,13:00-21:00,10
NMGY721113HZSKEJ75,11/11/1984,Genderqueer,Memorial,Lake View,Marquette,51001,972,Baxie,Gutch,Keyhoe,$16988.34,13:00-21:00,10
XAOH521002MZSRGE76,6/17/1970,Female to Male,Doe Crossing,Portage,4th,34114 CEDEX,272,Standford,Courtliff,Enriquez,$12574.09,11:00-19:00,10
NCAH621030HYNHLZ80,5/29/1977,MTF,Talmadge,Gateway,Mendota,,222,Axe,Waterman,Cornil,$12870.38,12:00-20:00,10
NQLF321216MZSQZW22,6/12/1990,Cis,Messerschmidt,Pierstorff,Cody,,124,Maximilianus,Somes,Bullock,$18102.46,12:00-20:00,10
BZWR721031HZSYXT59,7/10/1995,Intersex,Lindbergh,Raven,Porter,,317,Neall,Kamienski,McAnellye,$28209.46,11:00-19:00,10
XCBM621231MTSHZF83,11/26/1985,Transsexual Man,Sunfield,Mandrake,Mcguire,,389,Sheffy,Finnigan,Schollick,$19532.30,13:00-21:00,10
XGRH721031MYNYCQ28,5/17/1989,Androgyne,Farmco,Lillian,Havey,,481,Heinrick,Hutley,Pinch,$20146.69,10:00-18:00,9
ZSHK921131MYNVJM62,11/22/1981,Other,Green Ridge,Di Loreto,Maple Wood,,346,Munmro,Brok,Hiley,$24677.94,13:00-21:00,10
LCQM821216MZSWGS01,7/3/1983,Transgender Person,Maywood,Daystar,Bluejay,686 24,914,Raphael,Farnill,Balchen,$29938.29,11:00-19:00,9
BALE821231MZSEFC97,12/15/1979,Gender Variant,Cardinal,Judy,Kim,723 35,059,Karl,Kurt,Kupke,$21290.07,11:00-19:00,10
MWVE421106HYNWAL88,10/23/1991,FTM,Knutson,Carey,Oriole,,809,Luther,Darwen,Davidzon,$26555.54,11:00-19:00,10
DRQN521031MVZMGJ96,6/18/1976,Trans Person,Onsgard,Menomonie,Fair Oaks,,463,Ermin,Surby,Scott,$12279.61,13:00-21:00,10
QULI621231MQOTUM57,1/7/1985,Genderqueer,Chive,Drewry,Meadow Ridge,7210,649,Marcus,Masterson,Crotty,$27301.15,11:00-19:00,9
VYTX621031HZSESM35,7/19/1988,Neutrois,Lerdahl,Schmedeman,Fordem,1111,038,Korey,Skillicorn,Aves,$16449.21,13:00-21:00,8
YQMN321031HZSNMC66,4/8/1994,Trans Person,Ilene,Eastwood,Lawn,,036,Deck,Yokley,Lawrence,$10697.25,11:00-19:00,10
ZIJR220630HTCKBX02,3/9/1970,Cis,La Follette,Old Shore,Buena Vista,4323,892,Sawyere,Lytlle,Albion,$28012.10,13:00-21:00,10
TREY921231MZSPHV90,2/18/1981,MTF,Buhler,Anzinger,Old Shore,93584 CEDEX,957,Aurthur,Ginnelly,Havick,$12212.74,13:00-21:00,10
SGOF121204MYNCSZ72,6/23/1971,Cis Male,Mallory,Prairieview,International,2383,826,Currie,Freda,Caraher,$20144.33,13:00-21:00,9
XBPO921100MZSOSV91,9/10/1972,Neither,Kim,Holy Cross,Dorton,460999,332,Milt,Simmons,Francombe,$27990.15,8:00-16:00,9
PMSN821131MYNHNQ72,6/19/1985,Cisgender Male,Columbus,Cordelia,Eggendart,,828,Bealle,Saddler,Pucker,$16836.29,13:00-21:00,10
VCMO921130HZSKJR76,1/10/1991,Cis Male,Granby,Monica,Grim,,959,Wendell,Klimes,Carr,$28947.79,13:00-21:00,10
YGNX020615MYNFRY68,9/13/1974,Cisgender Woman,Eggendart,Kim,Granby,,166,Henderson,Antonov,Gable,$12747.80,12:00-20:00,10
GMBT621231HZSUID07,10/10/1993,Pangender,Tennessee,Pawling,Mayer,432980,131,Webb,Truman,Amer,$15924.88,10:00-18:00,8
UOLN121031MYNMPZ09,8/1/1980,Gender Questioning,Summerview,Dakota,Lukken,682027,850,Rodger,Bernasek,Kirkbride,$13946.79,13:00-21:00,6
YFDB321210MZSZBS54,2/7/1975,Neutrois,Montana,Springs,Dennis,,881,Foss,Muress,Alenichev,$15805.15,12:00-20:00,6
SIEQ420231MYNGIM45,6/29/1971,Cisgender Male,Loeprich,David,Buell,29005,593,Kristian,Van der Hoeven,Seys,$13916.23,13:00-21:00,9
AMXB821230HZSVEW54,6/10/1979,Transgender Female,Farmco,Lukken,Dovetail,,988,Erskine,Iacovaccio,Fensome,$20658.80,10:00-18:00,6
EKGI221101HZSEHP67,11/18/1974,Transmasculine,Autumn Leaf,Fulton,Golf,912 99,382,Claudianus,Trask,Saward,$15108.59,11:00-19:00,9
YQEC021230HVZZXK46,8/28/1995,Pangender,Ryan,Union,Scoville,,812,Karim,Ivell,Triplet,$28026.66,12:00-20:00,10
ADGM221231HZSPDQ52,12/28/1990,Genderqueer,Forest Dale,Mcbride,Dryden,,713,Nil,De Zuani,Sommersett,$11186.79,11:00-19:00,10
YFGJ721031HZSDNA55,3/5/1997,Transgender Female,Reindahl,Kenwood,Wayridge,43666,512,Wernher,Robb,Stening,$27829.31,13:00-21:00,10
RALB721130MVZXFO25,7/22/1970,Gender Nonconforming,Spenser,New Castle,Trailsway,,449,Rickert,Sansom,Bosson,$16448.00,10:00-18:00,7
FXYH621203MZSSEB04,9/25/1990,Non-binary,Onsgard,Granby,Scofield,,815,Cosmo,Greenslade,Popescu,$24378.13,13:00-21:00,10
EZMV320600HYNTQP41,6/13/1976,Transgender Man,Kropf,Magdeline,Heath,,185,Dwain,Limming,Minihan,$17502.32,13:00-21:00,9
GPMD121231HZSCLP27,1/22/1975,Trans Male,Waxwing,Alpine,Clarendon,,018,Matty,Luno,Abatelli,$13916.92,13:00-21:00,9
AZUS221231MZSYQK38,7/10/1982,Transgender,Crownhardt,Pawling,Waubesa,,976,Artur,Rudolf,Salkild,$17436.35,12:00-20:00,10
GVCL621030MZSXRE91,4/24/1981,Transsexual Person,Laurel,3rd,Waywood,,940,Rhett,Welberry,Martindale,$22580.42,12:00-20:00,8
KDGH521130HZSZTA42,11/23/1990,Male to Female,Atwood,Amoth,Larry,35252,770,Davidde,Deddum,Maylam,$16025.31,12:00-20:00,8
ESCD121216HZSHQV90,3/9/1977,Trans Man,Spenser,Fairfield,Ronald Regan,46160,818,Kelsey,Fandrich,Deek,$10118.33,13:00-21:00,10
ITAO921104MTCHBC13,10/18/1971,Female to Male,Mifflin,Texas,John Wall,34160,864,Graehme,Antalffy,Paddemore,$15489.67,12:00-20:00,8
MDYO621230MYNVZQ03,10/29/1997,Transsexual Female,Tony,Bonner,Barnett,,471,Cornall,Doddemeade,Traite,$24864.97,11:00-19:00,9
PGSU821230HZSZVB13,3/12/1987,Transsexual Woman,Bayside,Straubel,Hintze,,019,Mitchael,Rands,Swainson,$10081.00,13:00-21:00,6
LZKJ621209HTSCPK85,6/12/1973,Transgender Man,Hoffman,Pawling,Kenwood,,293,Donall,Stockwell,Paternoster,$12500.04,13:00-21:00,7
BNVT020930MZSBTV32,2/15/1982,Cis Female,Mallard,Porter,Prentice,,188,Bentley,Longstaff,Sinnat,$13875.53,12:00-20:00,9
OSIE720804MVZATN60,4/25/1989,Cisgender,Nevada,Schiller,Main,2733,018,Roscoe,Jeffreys,Helversen,$19462.62,12:00-20:00,10
WZMF121131HZSBPK73,6/11/1993,Androgyne,Summit,Dapin,Tennyson,07112,762,Fernando,Beechcraft,Dowles,$29354.99,13:00-21:00,9
XHCM821031MZSKWB72,3/22/1971,Transsexual Person,Pine View,Killdeer,5th,,083,Osgood,Rickcord,Danher,$21386.46,13:00-21:00,10
RMNW121207MSRXJW52,9/28/1984,Trans,Bashford,Graceland,Stuart,15400-000,239,Stewart,Jewsbury,Galgey,$13500.16,13:00-21:00,10
JWVO421016MVZLVE25,9/22/1999,Androgyne,Norway Maple,Sachtjen,Pennsylvania,4214,786,Larry,Crut,Iwanowski,$19469.25,13:00-21:00,10
DTCV421230HYNEMB09,9/7/1970,Transsexual Person,Surrey,Troy,Scott,72140,405,Ced,Ronchka,Lidell,$13873.74,12:00-20:00,10
NYAH921131HTSXTJ03,7/8/1997,Male to Female,Burrows,Haas,Kings,,506,Stanwood,Breinl,Peak,$11007.66,13:00-21:00,9
CEUP621230HVZQRV22,8/12/1973,Transgender,Rutledge,Green Ridge,Valley Edge,,493,Abdul,Hinkes,Flahy,$13555.46,13:00-21:00,10
XOLN220331MZSXCK54,5/26/1977,Trans,Hansons,Claremont,Bunker Hill,,776,Troy,Wedge,Matt,$12305.71,13:00-21:00,10
FWSG321231HYNBWA96,9/1/1976,Trans Man,Maple,Vera,Almo,,058,Uriel,Baszniak,Lamblot,$15185.62,13:00-21:00,10
PQVU120131HZSNLA08,3/23/1980,Trans Man,Carberry,Anthes,Merchant,,238,Tiler,Meeron,Alliban,$25642.03,13:00-21:00,10
ZWIS521102HZSINS79,10/19/1977,Transgender Man,Cardinal,Schmedeman,Cardinal,,827,Derril,Ogilvie,Knappen,$10918.08,12:00-20:00,9
IMTO021103HYNOVU71,1/24/1970,Transgender Person,Heath,Southridge,Transport,,967,Johny,Casetta,McKissack,$10613.85,13:00-21:00,10
DBYG521031MTSOML61,9/21/1979,Bigender,Del Mar,Summit,Monument,41220,693,Bertrando,Issit,Halwell,$23835.97,13:00-21:00,9
CGLJ420716MZSOQU55,8/17/1989,Other,Mockingbird,Mcguire,Artisan,65940-000,735,Bobby,Ughelli,Surphliss,$21180.58,13:00-21:00,9
XVRJ220731MYNMFH10,6/8/1978,FTM,Duke,Village Green,Jay,,360,Temple,Perceval,Mantripp,$18072.73,11:00-19:00,10
CTZD521131MVZPNR14,5/26/1987,Transgender Person,Cardinal,Rieder,Lawn,E4P,683,Hilario,Boadby,Gelderd,$15092.48,13:00-21:00,9
QUKJ821230MTCVFS60,7/2/1993,Transsexual Person,Weeping Birch,Northland,Dayton,446392,089,Brody,Sauvan,Trahmel,$29291.30,12:00-20:00,9
LFOS821215MZSVKH50,3/9/1996,Transgender,Alpine,Spaight,Eagle Crest,,790,Jodie,Deville,Weale,$17042.27,12:00-20:00,10
ACZI021214MZSCUD92,3/29/1983,Non-binary,Schlimgen,Meadow Vale,Toban,,203,Ara,Nyles,Dehm,$17746.05,13:00-21:00,10
BNFD021231MZSHGB38,10/9/1998,Transgender,Northview,School,Lakeland,607343,202,Terrell,Bensley,Waterdrinker,$23118.82,13:00-21:00,10
